{
  "type": "FeatureCollection",
  "name": "telangana_parcels",
  "note": "DEV FIXTURE — hand-authored, NON-AUTHORITATIVE sample parcel. Not Bhu Bharati data. Seeded only when TERRA_ENABLE_DEV_FIXTURES=true (never in production); see scripts/seed_telangana.py.",
  "features": [
    {
      "type": "Feature",
      "properties": {
        "parcel_id": "HYD-KHB-001",
        "survey_number": "123/A",
        "zoning": "residential",
        "ownership_category": "private",
        "area_sqm": 4500.0
      },
      "geometry": {
        "type": "Polygon",
        "coordinates": [
          [
            [78.4850, 17.3840],
            [78.4870, 17.3840],
            [78.4870, 17.3860],
            [78.4850, 17.3860],
            [78.4850, 17.3840]
          ]
        ]
      }
    }
  ]
}
