{"type":"FeatureCollection","features":[{"type":"Feature","properties":{"district":"Adilabad","centroid":[78.8653,19.2982],"bbox":[77.7574,18.6803,79.9731,19.9161]},"geometry":{"type":"Polygon","coordinates":[[[78.3363,19.8832],[78.3467,19.8814],[78.3658,19.8829],[78.3745,19.8793],[78.3841,19.8792],[78.385,19.8739],[78.3842,19.8636],[78.386,19.8557],[78.3859,19.8527],[78.3892,19.8462],[78.3977,19.8364],[78.409,19.8299],[78.4287,19.8231],[78.4446,19.8192],[78.4647,19.8162],[78.4762,19.8164],[78.4843,19.8072],[78.4895,19.7985],[78.4939,19.7931],[78.5037,19.7924],[78.5096,19.8012],[78.5124,19.8143],[78.5192,19.8199],[78.5263,19.8217],[78.5579,19.8156],[78.5737,19.8138],[78.585,19.8117],[78.5918,19.8154],[78.5953,19.8174],[78.6037,19.8175],[78.6143,19.8133],[78.6193,19.8087],[78.6352,19.8038],[78.6483,19.8015],[78.6864,19.7899],[78.6959,19.7897],[78.7018,19.7856],[78.7092,19.7727],[78.7164,19.7668],[78.7247,19.769],[78.7318,19.7729],[78.7383,19.7794],[78.7431,19.7797],[78.7522,19.7773],[78.7632,19.7756],[78.7732,19.7794],[78.7849,19.7787],[78.797,19.7686],[78.8032,19.7601],[78.8076,19.758],[78.8171,19.7604],[78.8253,19.7604],[78.8383,19.7621],[78.8443,19.759],[78.8456,19.7584],[78.8536,19.738],[78.8569,19.7313],[78.8574,19.7197],[78.8617,19.7059],[78.8635,19.6968],[78.864,19.6867],[78.8632,19.6795],[78.8591,19.6689],[78.8588,19.6563],[78.8779,19.6568],[78.891,19.6553],[78.9038,19.6646],[78.9159,19.6677],[78.935,19.6622],[78.9436,19.6651],[78.9542,19.6634],[78.9617,19.6588],[78.969,19.6492],[78.968,19.6394],[78.9647,19.6296],[78.9629,19.6173],[78.9656,19.6045],[78.9713,19.5973],[78.9783,19.5904],[78.9805,19.5851],[78.9779,19.5799],[78.969,19.5735],[78.9647,19.5703],[78.9545,19.5627],[78.9496,19.5575],[78.9546,19.5518],[78.9649,19.5503],[78.9736,19.5499],[78.9785,19.5509],[78.9864,19.5571],[78.9929,19.562],[78.9956,19.561],[79.0001,19.5594],[79.0122,19.5438],[79.0184,19.54],[79.0388,19.545],[79.0515,19.5453],[79.0601,19.5387],[79.0634,19.5313],[79.0738,19.5286],[79.0966,19.5305],[79.1029,19.528],[79.1024,19.5194],[79.1047,19.5127],[79.1128,19.5098],[79.1264,19.5065],[79.1403,19.5011],[79.157,19.4855],[79.1691,19.4678],[79.1778,19.4607],[79.189,19.4587],[79.2187,19.4645],[79.2229,19.4678],[79.2207,19.4756],[79.2088,19.4848],[79.2068,19.4917],[79.2081,19.4986],[79.2157,19.5106],[79.2234,19.517],[79.232,19.5208],[79.2366,19.5268],[79.2384,19.5328],[79.2393,19.542],[79.2382,19.5509],[79.2398,19.5595],[79.2501,19.5777],[79.2487,19.5869],[79.2438,19.5933],[79.2377,19.5995],[79.2371,19.6095],[79.2439,19.6126],[79.2552,19.6112],[79.2679,19.6067],[79.2932,19.5967],[79.3048,19.5902],[79.3096,19.582],[79.3143,19.5655],[79.3215,19.5718],[79.3297,19.5737],[79.3409,19.5738],[79.369,19.5712],[79.3712,19.5615],[79.3807,19.5559],[79.389,19.5489],[79.4018,19.5398],[79.4136,19.5335],[79.4232,19.5328],[79.4303,19.5351],[79.4413,19.5335],[79.4582,19.519],[79.4651,19.509],[79.4704,19.4975],[79.48,19.5038],[79.4933,19.5052],[79.5134,19.5181],[79.5158,19.5224],[79.516,19.5368],[79.5148,19.5408],[79.515,19.542],[79.5262,19.5461],[79.535,19.5481],[79.5427,19.5485],[79.5447,19.5427],[79.5452,19.534],[79.5477,19.5261],[79.5525,19.52],[79.5656,19.5109],[79.5734,19.5066],[79.5827,19.5031],[79.5913,19.5017],[79.5981,19.5038],[79.6009,19.508],[79.6024,19.5145],[79.6029,19.5211],[79.6072,19.5395],[79.6109,19.5492],[79.6158,19.5586],[79.6214,19.5651],[79.6397,19.575],[79.6526,19.5767],[79.665,19.5772],[79.678,19.5766],[79.6848,19.5792],[79.6957,19.5811],[79.7051,19.5812],[79.7129,19.5833],[79.7299,19.5966],[79.7403,19.6031],[79.7543,19.6023],[79.7663,19.6002],[79.7775,19.5977],[79.7854,19.5936],[79.7863,19.5897],[79.7933,19.5801],[79.8052,19.5768],[79.8111,19.5738],[79.8166,19.569],[79.8195,19.5615],[79.8206,19.5524],[79.8232,19.5443],[79.8282,19.537],[79.8562,19.5171],[79.8638,19.5136],[79.8702,19.505],[79.8782,19.5007],[79.9022,19.4965],[79.911,19.4923],[79.9178,19.4855],[79.9235,19.4776],[79.9329,19.4691],[79.9373,19.467],[79.9402,19.4645],[79.945,19.4588],[79.9462,19.4509],[79.9458,19.4408],[79.9592,19.4259],[79.97,19.4095],[79.9731,19.401],[79.9726,19.3916],[79.9707,19.3821],[79.9672,19.3746],[79.9665,19.3609],[79.9645,19.3507],[79.9572,19.3346],[79.9574,19.3245],[79.9636,19.3065],[79.9618,19.2975],[79.949,19.2889],[79.9452,19.2841],[79.9319,19.2593],[79.9202,19.2264],[79.9193,19.215],[79.9225,19.2034],[79.9353,19.1839],[79.9424,19.1759],[79.9432,19.1706],[79.9407,19.1644],[79.9261,19.1609],[79.9223,19.1571],[79.906,19.1418],[79.8712,19.1227],[79.8631,19.1158],[79.858,19.1041],[79.8601,19.091],[79.8611,19.0599],[79.857,19.0422],[79.8596,19.0346],[79.871,19.0355],[79.8811,19.0414],[79.8908,19.0455],[79.9029,19.048],[79.9161,19.0474],[79.926,19.0425],[79.9331,19.0297],[79.9345,19.0217],[79.9328,18.9957],[79.9313,18.9748],[79.9322,18.9716],[79.9359,18.9576],[79.9409,18.9377],[79.9414,18.9158],[79.9401,18.8967],[79.9409,18.8774],[79.939,18.8589],[79.9333,18.845],[79.9255,18.8375],[79.9208,18.8362],[79.9041,18.8349],[79.894,18.8308],[79.8909,18.8295],[79.8841,18.8281],[79.8733,18.8291],[79.8629,18.8326],[79.8586,18.845],[79.8579,18.8534],[79.8549,18.8684],[79.8414,18.8788],[79.8356,18.8749],[79.8295,18.8652],[79.8255,18.8519],[79.8241,18.8369],[79.826,18.8271],[79.8363,18.8134],[79.8439,18.8062],[79.847,18.7974],[79.844,18.7861],[79.8361,18.7812],[79.8294,18.7758],[79.8189,18.7617],[79.8076,18.7394],[79.8034,18.7222],[79.7944,18.7139],[79.771,18.6993],[79.7558,18.6918],[79.7432,18.6885],[79.7297,18.689],[79.7192,18.6912],[79.7083,18.69],[79.7045,18.6862],[79.6941,18.6817],[79.6842,18.6803],[79.6762,18.6844],[79.6668,18.6984],[79.6615,18.7035],[79.6533,18.7216],[79.6488,18.7271],[79.637,18.7336],[79.6295,18.7394],[79.6191,18.7392],[79.6163,18.7435],[79.6081,18.7477],[79.594,18.7587],[79.5866,18.7623],[79.563,18.7785],[79.5529,18.7832],[79.5401,18.787],[79.5291,18.7927],[79.5191,18.7914],[79.5127,18.7896],[79.5055,18.7938],[79.4995,18.8033],[79.4977,18.8051],[79.489,18.8148],[79.4816,18.8213],[79.473,18.8271],[79.4565,18.8357],[79.4505,18.8428],[79.4435,18.8495],[79.4362,18.8536],[79.4271,18.857],[79.4062,18.8667],[79.3964,18.8696],[79.3885,18.8698],[79.3828,18.8681],[79.3772,18.8555],[79.3728,18.8475],[79.3652,18.8378],[79.3553,18.83],[79.349,18.8268],[79.3407,18.8248],[79.3305,18.8225],[79.3133,18.8199],[79.3034,18.8232],[79.2956,18.8241],[79.2878,18.8261],[79.2813,18.8292],[79.2747,18.8343],[79.2607,18.8509],[79.2517,18.8593],[79.2385,18.87],[79.2275,18.8721],[79.1995,18.8706],[79.1852,18.8733],[79.1592,18.9044],[79.1492,18.9144],[79.127,18.9296],[79.1149,18.9401],[79.1057,18.9512],[79.1027,18.9623],[79.1007,18.9748],[79.0911,18.9869],[79.0863,18.9893],[79.0828,18.9969],[79.0819,18.9988],[79.0722,19.022],[79.064,19.0319],[79.0507,19.0419],[79.0389,19.0491],[79.0291,19.0538],[79.0142,19.0598],[78.9985,19.0649],[78.996,19.0656],[78.9927,19.0665],[78.985,19.0688],[78.9705,19.0711],[78.9499,19.0692],[78.9392,19.0647],[78.9282,19.0568],[78.9214,19.0494],[78.9153,19.041],[78.9052,19.0312],[78.8968,19.0287],[78.8844,19.0317],[78.8716,19.0363],[78.8451,19.0511],[78.8304,19.0561],[78.8205,19.0535],[78.7921,19.0346],[78.7539,19.0121],[78.7367,19.0089],[78.7004,19.0237],[78.6818,19.0254],[78.6654,19.0195],[78.6571,19.0122],[78.649,18.9989],[78.6449,18.9932],[78.6311,18.9789],[78.6252,18.9769],[78.6181,18.9758],[78.6074,18.9778],[78.5862,18.9859],[78.5771,18.985],[78.5655,18.9782],[78.5574,18.9725],[78.5388,18.9504],[78.5286,18.9416],[78.5259,18.9429],[78.519,18.9459],[78.5055,18.9585],[78.4938,18.9637],[78.4605,18.9573],[78.4467,18.9572],[78.4383,18.9586],[78.4294,18.9634],[78.4115,18.9797],[78.4004,18.9879],[78.3886,18.9901],[78.3779,18.9883],[78.3647,18.9849],[78.3541,18.9786],[78.3259,18.9575],[78.3137,18.9509],[78.299,18.9445],[78.2847,18.9408],[78.2768,18.9435],[78.2727,18.9571],[78.2733,18.9687],[78.2681,18.9817],[78.2604,18.9903],[78.2481,18.9975],[78.245,18.9985],[78.2329,19.0026],[78.2178,19.0014],[78.202,18.9984],[78.1894,18.9923],[78.1743,18.9877],[78.1573,18.9802],[78.1296,18.9585],[78.1174,18.9524],[78.0974,18.9444],[78.0893,18.942],[78.0819,18.9383],[78.0691,18.9354],[78.0661,18.9332],[78.0607,18.9297],[78.048,18.919],[78.0472,18.9181],[78.0389,18.9048],[78.0338,18.8939],[78.0293,18.8799],[78.0248,18.8764],[78.0182,18.8753],[77.9958,18.8816],[77.9684,18.8753],[77.9601,18.8686],[77.9526,18.8535],[77.9441,18.8423],[77.9296,18.8465],[77.9324,18.8509],[77.9246,18.8541],[77.9253,18.8592],[77.9061,18.8673],[77.8992,18.8679],[77.8987,18.8837],[77.8877,18.8851],[77.8826,18.8964],[77.8816,18.9085],[77.8693,18.9103],[77.8566,18.9061],[77.8405,18.9113],[77.8411,18.9215],[77.8443,18.9303],[77.8487,18.9314],[77.8537,18.9523],[77.8305,18.9502],[77.8274,18.9457],[77.8127,18.9495],[77.8152,18.9592],[77.8129,18.9601],[77.8171,18.9824],[77.7871,18.9843],[77.7815,18.9763],[77.7674,18.9814],[77.7684,18.9994],[77.7657,19.0074],[77.7653,19.0154],[77.7643,19.0196],[77.7622,19.0205],[77.7602,19.0226],[77.7574,19.0286],[77.7609,19.0512],[77.7596,19.0593],[77.7617,19.062],[77.771,19.0562],[77.7779,19.0544],[77.7831,19.0548],[77.7911,19.0507],[77.7945,19.0502],[77.7972,19.0513],[77.7957,19.061],[77.7972,19.0649],[77.7935,19.0712],[77.7945,19.0734],[77.7973,19.0746],[77.8013,19.0844],[77.7998,19.0946],[77.8002,19.0989],[77.8027,19.102],[77.8058,19.1033],[77.8152,19.1037],[77.8224,19.0964],[77.8255,19.0917],[77.8286,19.0849],[77.8338,19.0865],[77.8422,19.0868],[77.8466,19.0885],[77.8481,19.0901],[77.8482,19.0926],[77.8441,19.0961],[77.8452,19.1142],[77.8386,19.1189],[77.8339,19.1327],[77.8311,19.1357],[77.8377,19.1383],[77.8492,19.1553],[77.8487,19.1594],[77.8502,19.1623],[77.8504,19.1677],[77.8539,19.1694],[77.8542,19.1723],[77.853,19.1768],[77.8584,19.1808],[77.8445,19.1882],[77.8465,19.197],[77.8527,19.2046],[77.8523,19.2097],[77.8585,19.2185],[77.8615,19.2263],[77.8623,19.234],[77.8654,19.2379],[77.8681,19.2461],[77.8674,19.2553],[77.8846,19.2602],[77.8919,19.2571],[77.9004,19.2561],[77.9057,19.2672],[77.9007,19.2771],[77.8931,19.2784],[77.8754,19.2798],[77.8619,19.2841],[77.8608,19.2876],[77.8626,19.2954],[77.8609,19.3021],[77.8711,19.3057],[77.8752,19.3089],[77.888,19.3124],[77.8933,19.3212],[77.8995,19.3178],[77.9058,19.3158],[77.9123,19.318],[77.922,19.3259],[77.9263,19.3319],[77.9372,19.3358],[77.9406,19.3425],[77.9489,19.3413],[77.9627,19.3318],[77.9667,19.3273],[77.9769,19.3211],[77.9855,19.309],[77.9959,19.3057],[78.0116,19.3011],[78.0182,19.2963],[78.0273,19.2787],[78.0329,19.2741],[78.0457,19.2709],[78.0494,19.2627],[78.0476,19.2556],[78.048,19.2475],[78.0511,19.2418],[78.0576,19.2397],[78.0751,19.2465],[78.0823,19.2548],[78.0951,19.2499],[78.0994,19.2455],[78.1267,19.2464],[78.1393,19.2394],[78.1497,19.2301],[78.1701,19.2363],[78.1833,19.2415],[78.1864,19.2493],[78.1833,19.2612],[78.1832,19.279],[78.1932,19.3029],[78.1955,19.3144],[78.1951,19.325],[78.1972,19.3317],[78.1871,19.3386],[78.1823,19.3454],[78.1796,19.353],[78.1814,19.3608],[78.1845,19.3682],[78.1848,19.3763],[78.187,19.3845],[78.1876,19.3956],[78.1822,19.4118],[78.1981,19.4074],[78.2055,19.4144],[78.2151,19.4271],[78.2243,19.434],[78.2336,19.4329],[78.2458,19.429],[78.252,19.43],[78.2618,19.4401],[78.2669,19.4479],[78.2732,19.4538],[78.282,19.453],[78.2912,19.4488],[78.2973,19.4488],[78.3089,19.4564],[78.312,19.4659],[78.312,19.4793],[78.31,19.4864],[78.3036,19.4938],[78.2994,19.5041],[78.2987,19.5136],[78.2955,19.5308],[78.295,19.5373],[78.2915,19.5431],[78.2846,19.5504],[78.2791,19.5582],[78.2853,19.5603],[78.2965,19.5584],[78.2993,19.5613],[78.2999,19.5668],[78.3061,19.5674],[78.3111,19.5718],[78.312,19.5786],[78.31,19.5867],[78.311,19.6042],[78.3089,19.6114],[78.299,19.6234],[78.2955,19.6318],[78.2924,19.6442],[78.2876,19.6545],[78.2727,19.6602],[78.2697,19.6631],[78.2734,19.6702],[78.2858,19.6897],[78.3049,19.6884],[78.3161,19.6906],[78.3201,19.6967],[78.3227,19.7036],[78.3325,19.7085],[78.3453,19.7136],[78.3443,19.7243],[78.3454,19.7344],[78.3532,19.7378],[78.3608,19.754],[78.3648,19.7673],[78.3677,19.7811],[78.367,19.7945],[78.3605,19.8057],[78.3516,19.8104],[78.3392,19.8135],[78.336,19.8187],[78.3414,19.8329],[78.339,19.8392],[78.3032,19.8458],[78.2941,19.8496],[78.2942,19.8556],[78.2977,19.8733],[78.3076,19.9085],[78.3102,19.9127],[78.3195,19.9155],[78.3284,19.9161],[78.3351,19.9101],[78.3346,19.9043],[78.3266,19.8994],[78.323,19.895],[78.3252,19.8905],[78.3363,19.8832]]]}},{"type":"Feature","properties":{"district":"Hyderabad","centroid":[78.4593,17.3845],"bbox":[78.3841,17.2971,78.5345,17.4718]},"geometry":{"type":"Polygon","coordinates":[[[78.5058,17.4502],[78.51,17.4485],[78.5188,17.4536],[78.5274,17.4594],[78.5343,17.4585],[78.5345,17.4508],[78.5308,17.4356],[78.5213,17.4169],[78.5163,17.3947],[78.5158,17.3857],[78.5235,17.3664],[78.52,17.3565],[78.5095,17.3457],[78.5084,17.3365],[78.5094,17.3253],[78.4945,17.3155],[78.4765,17.2992],[78.4704,17.2971],[78.4659,17.2994],[78.4619,17.303],[78.4504,17.3124],[78.4446,17.3197],[78.4417,17.3303],[78.4444,17.3416],[78.4347,17.3404],[78.4167,17.342],[78.4055,17.3445],[78.3955,17.3524],[78.3855,17.3845],[78.3841,17.395],[78.3869,17.4081],[78.3945,17.4198],[78.4058,17.4292],[78.4153,17.4296],[78.4215,17.4246],[78.43,17.412],[78.4388,17.4012],[78.444,17.3971],[78.443,17.4235],[78.448,17.4315],[78.4577,17.4418],[78.473,17.469],[78.4855,17.4718],[78.4931,17.4665],[78.5058,17.4502]]]}},{"type":"Feature","properties":{"district":"Karimnagar","centroid":[79.427,18.5231],"bbox":[78.5172,17.975,80.3367,19.0711]},"geometry":{"type":"Polygon","coordinates":[[[79.064,19.0319],[79.0722,19.022],[79.0819,18.9988],[79.0828,18.9969],[79.0863,18.9893],[79.0911,18.9869],[79.1007,18.9748],[79.1027,18.9623],[79.1057,18.9512],[79.1149,18.9401],[79.127,18.9296],[79.1492,18.9144],[79.1592,18.9044],[79.1852,18.8733],[79.1995,18.8706],[79.2275,18.8721],[79.2385,18.87],[79.2517,18.8593],[79.2607,18.8509],[79.2747,18.8343],[79.2813,18.8292],[79.2878,18.8261],[79.2956,18.8241],[79.3034,18.8232],[79.3133,18.8199],[79.3305,18.8225],[79.3407,18.8248],[79.349,18.8268],[79.3553,18.83],[79.3652,18.8378],[79.3728,18.8475],[79.3772,18.8555],[79.3828,18.8681],[79.3885,18.8698],[79.3964,18.8696],[79.4062,18.8667],[79.4271,18.857],[79.4362,18.8536],[79.4435,18.8495],[79.4505,18.8428],[79.4565,18.8357],[79.473,18.8271],[79.4816,18.8213],[79.489,18.8148],[79.4977,18.8051],[79.4995,18.8033],[79.5055,18.7938],[79.5127,18.7896],[79.5191,18.7914],[79.5291,18.7927],[79.5401,18.787],[79.5529,18.7832],[79.563,18.7785],[79.5866,18.7623],[79.594,18.7587],[79.6081,18.7477],[79.6163,18.7435],[79.6191,18.7392],[79.6295,18.7394],[79.637,18.7336],[79.6488,18.7271],[79.6533,18.7216],[79.6615,18.7035],[79.6668,18.6984],[79.6762,18.6844],[79.6842,18.6803],[79.6941,18.6817],[79.7045,18.6862],[79.7083,18.69],[79.7192,18.6912],[79.7297,18.689],[79.7432,18.6885],[79.7558,18.6918],[79.771,18.6993],[79.7944,18.7139],[79.8034,18.7222],[79.8076,18.7394],[79.8189,18.7617],[79.8294,18.7758],[79.8361,18.7812],[79.844,18.7861],[79.847,18.7974],[79.8439,18.8062],[79.8363,18.8134],[79.826,18.8271],[79.8241,18.8369],[79.8255,18.8519],[79.8295,18.8652],[79.8356,18.8749],[79.8414,18.8788],[79.8549,18.8684],[79.8579,18.8534],[79.8586,18.845],[79.8629,18.8326],[79.8733,18.8291],[79.8841,18.8281],[79.8909,18.8295],[79.894,18.8308],[79.9091,18.8067],[79.9163,18.7973],[79.932,18.7844],[79.9401,18.7818],[79.9501,18.7799],[79.9815,18.7743],[79.9929,18.7735],[80.0091,18.7686],[80.0124,18.7668],[80.0145,18.7601],[80.0165,18.757],[80.0187,18.751],[80.0297,18.7487],[80.0329,18.7464],[80.0464,18.7209],[80.0533,18.7178],[80.0619,18.7165],[80.0655,18.7133],[80.0679,18.7087],[80.0747,18.7026],[80.0789,18.7013],[80.0821,18.7024],[80.0844,18.7008],[80.087,18.6976],[80.1005,18.685],[80.1066,18.6775],[80.1108,18.6762],[80.116,18.6758],[80.1184,18.6791],[80.1213,18.6812],[80.1309,18.6854],[80.1366,18.6868],[80.1423,18.6863],[80.1487,18.6932],[80.1522,18.6953],[80.1581,18.6959],[80.162,18.694],[80.1646,18.6903],[80.1674,18.6801],[80.171,18.6773],[80.1757,18.6759],[80.189,18.6756],[80.191,18.679],[80.1917,18.6836],[80.1941,18.6885],[80.2019,18.6974],[80.2079,18.7005],[80.2144,18.7011],[80.22,18.6992],[80.2253,18.6961],[80.23,18.6975],[80.2356,18.7004],[80.2417,18.7002],[80.2467,18.7013],[80.2604,18.7141],[80.2675,18.718],[80.2709,18.7135],[80.2779,18.711],[80.2888,18.695],[80.2963,18.6856],[80.2995,18.6792],[80.3078,18.6523],[80.315,18.6363],[80.3193,18.6217],[80.3315,18.5966],[80.3367,18.5905],[80.3273,18.5903],[80.3143,18.5868],[80.2994,18.584],[80.2908,18.5849],[80.2641,18.5842],[80.262,18.5836],[80.2382,18.5632],[80.2344,18.5591],[80.2288,18.5548],[80.222,18.5479],[80.2218,18.5197],[80.2199,18.4772],[80.2209,18.4579],[80.219,18.4321],[80.2194,18.4231],[80.2178,18.4151],[80.2149,18.4092],[80.2125,18.4011],[80.2114,18.3853],[80.1969,18.373],[80.1914,18.3664],[80.1715,18.3484],[80.1672,18.3438],[80.1677,18.3364],[80.147,18.3578],[80.1399,18.3684],[80.1415,18.3784],[80.1454,18.3932],[80.1456,18.4086],[80.1361,18.4133],[80.1294,18.4147],[80.1215,18.4177],[80.1057,18.4222],[80.098,18.4257],[80.0912,18.4269],[80.0765,18.4177],[80.0736,18.4069],[80.0723,18.3929],[80.0754,18.3876],[80.0694,18.3823],[80.0525,18.3961],[80.0371,18.399],[80.0237,18.3961],[80.0206,18.4024],[80.0174,18.4125],[80.0233,18.438],[80.0281,18.431],[80.0325,18.4265],[80.0429,18.4234],[80.0544,18.4212],[80.0718,18.4232],[80.0779,18.4286],[80.091,18.443],[80.0977,18.4529],[80.1093,18.4524],[80.1117,18.462],[80.101,18.4631],[80.083,18.4634],[80.0813,18.4654],[80.0778,18.4723],[80.0698,18.471],[80.0595,18.4746],[80.0455,18.4774],[80.0591,18.494],[80.0663,18.4981],[80.078,18.507],[80.0788,18.5136],[80.0335,18.5117],[80.0319,18.504],[80.0288,18.4964],[80.0278,18.4899],[80.024,18.4848],[80.0237,18.4807],[80.0244,18.4758],[80.0178,18.4642],[80.0085,18.4687],[80.0016,18.4701],[79.9927,18.4806],[79.9897,18.482],[79.9857,18.4859],[79.9799,18.4844],[79.971,18.4788],[79.9685,18.4719],[79.963,18.4728],[79.958,18.4809],[79.9551,18.4937],[79.9518,18.5027],[79.9476,18.5045],[79.9434,18.5033],[79.9376,18.5043],[79.9325,18.5079],[79.907,18.5098],[79.8872,18.5089],[79.8787,18.5063],[79.8811,18.4944],[79.8932,18.4746],[79.9002,18.4656],[79.9081,18.4597],[79.9184,18.4548],[79.9175,18.431],[79.9169,18.4243],[79.9156,18.4198],[79.8903,18.429],[79.8739,18.4402],[79.8599,18.4591],[79.8524,18.4765],[79.8499,18.4807],[79.8337,18.4939],[79.826,18.4963],[79.8178,18.4954],[79.8101,18.4916],[79.8055,18.4848],[79.806,18.472],[79.8091,18.4612],[79.815,18.447],[79.8203,18.4313],[79.8216,18.4158],[79.8156,18.413],[79.8066,18.4142],[79.7958,18.4198],[79.785,18.4266],[79.7775,18.4339],[79.7683,18.4466],[79.7601,18.4611],[79.7556,18.4678],[79.7513,18.4723],[79.7453,18.4771],[79.7361,18.4829],[79.7134,18.4911],[79.6961,18.4938],[79.6858,18.4937],[79.6786,18.4926],[79.6748,18.4896],[79.6679,18.4818],[79.6587,18.4731],[79.6527,18.469],[79.6509,18.4686],[79.6312,18.4733],[79.6208,18.4721],[79.6033,18.4675],[79.5903,18.4664],[79.5899,18.4587],[79.5907,18.4506],[79.589,18.4432],[79.5795,18.4292],[79.573,18.4214],[79.579,18.405],[79.5764,18.3986],[79.5756,18.3903],[79.5737,18.3813],[79.5738,18.3714],[79.579,18.3527],[79.5799,18.3473],[79.5792,18.3359],[79.5778,18.3323],[79.5731,18.3268],[79.5778,18.3185],[79.5759,18.3103],[79.567,18.3072],[79.5657,18.296],[79.5668,18.284],[79.5691,18.2755],[79.5758,18.2586],[79.586,18.2453],[79.5886,18.2403],[79.5951,18.2257],[79.5968,18.2186],[79.6041,18.2077],[79.6061,18.1998],[79.609,18.1928],[79.6133,18.1888],[79.6158,18.1817],[79.6166,18.1779],[79.6107,18.1718],[79.6072,18.1646],[79.6068,18.1568],[79.6088,18.1502],[79.6028,18.1402],[79.5965,18.1406],[79.5892,18.1424],[79.583,18.1419],[79.5799,18.1403],[79.581,18.1297],[79.5826,18.1252],[79.587,18.1195],[79.5805,18.1193],[79.57,18.1214],[79.5651,18.1165],[79.5627,18.113],[79.5566,18.101],[79.5381,18.101],[79.5312,18.0995],[79.5244,18.099],[79.5164,18.1035],[79.5063,18.0968],[79.497,18.0977],[79.4892,18.0999],[79.4797,18.107],[79.4718,18.1101],[79.4663,18.0968],[79.4596,18.0849],[79.4579,18.0788],[79.4545,18.0737],[79.4471,18.068],[79.436,18.062],[79.4309,18.0585],[79.414,18.0449],[79.3824,18.0268],[79.3762,18.0219],[79.3718,18.0168],[79.3683,18.0154],[79.36,18.0176],[79.3514,18.0209],[79.3407,18.0208],[79.3042,18.0173],[79.2938,18.0156],[79.2849,18.0129],[79.2768,18.0084],[79.2505,17.996],[79.2514,17.9764],[79.2481,17.975],[79.238,17.9759],[79.2274,17.9759],[79.218,17.9783],[79.2117,17.9844],[79.1982,17.9888],[79.1867,17.9903],[79.1677,17.9848],[79.1529,17.9822],[79.1444,17.9817],[79.1429,17.9871],[79.1421,17.9959],[79.1424,17.9997],[79.1365,18.0019],[79.1219,18.005],[79.0961,18.0148],[79.0898,18.0209],[79.0949,18.0228],[79.0988,18.0241],[79.1092,18.0225],[79.1146,18.0298],[79.1142,18.0359],[79.1061,18.049],[79.1078,18.0531],[79.1142,18.0632],[79.1176,18.0672],[79.1243,18.0708],[79.1292,18.0762],[79.1205,18.0784],[79.1143,18.0782],[79.0995,18.076],[79.0767,18.0786],[79.0671,18.0789],[79.0589,18.0809],[79.0393,18.0882],[79.0305,18.093],[79.0346,18.1054],[79.0366,18.1227],[79.025,18.1299],[79.0166,18.1329],[79.0095,18.139],[79.0137,18.1534],[79.0152,18.1614],[79.0146,18.1702],[79.0119,18.1766],[79.0139,18.1827],[79.0095,18.1934],[79.0033,18.2],[78.9947,18.2032],[78.9856,18.206],[78.9744,18.2087],[78.9594,18.213],[78.9559,18.2193],[78.9554,18.2279],[78.959,18.2488],[78.9548,18.2511],[78.9363,18.2539],[78.9249,18.2527],[78.9108,18.2499],[78.903,18.2471],[78.8973,18.2428],[78.8918,18.2357],[78.8712,18.2412],[78.843,18.2452],[78.8301,18.25],[78.8269,18.2521],[78.8198,18.2549],[78.7988,18.2552],[78.7867,18.257],[78.7739,18.2615],[78.7672,18.2568],[78.7636,18.2472],[78.7526,18.2253],[78.7398,18.2151],[78.725,18.2154],[78.7217,18.2295],[78.7131,18.2309],[78.7043,18.2305],[78.6923,18.228],[78.6872,18.2311],[78.6811,18.2364],[78.6706,18.2416],[78.6579,18.2459],[78.645,18.2477],[78.6253,18.2482],[78.5969,18.2468],[78.5884,18.2436],[78.5789,18.228],[78.5721,18.2216],[78.5631,18.2267],[78.5585,18.2385],[78.5547,18.2513],[78.5512,18.258],[78.5439,18.266],[78.5172,18.2821],[78.5219,18.2891],[78.5315,18.2954],[78.5367,18.2998],[78.5374,18.3144],[78.5457,18.3355],[78.5439,18.3424],[78.5395,18.3492],[78.5318,18.3651],[78.5287,18.3829],[78.5323,18.388],[78.5443,18.3884],[78.5543,18.3875],[78.5608,18.388],[78.5578,18.3947],[78.5461,18.404],[78.5417,18.4086],[78.5396,18.4167],[78.5424,18.4224],[78.5474,18.4282],[78.5485,18.435],[78.5458,18.4435],[78.5372,18.4556],[78.5277,18.4603],[78.5192,18.4676],[78.5211,18.4747],[78.5317,18.4945],[78.5437,18.5145],[78.5534,18.534],[78.5586,18.5399],[78.5678,18.5448],[78.5748,18.5443],[78.5832,18.5419],[78.5891,18.5444],[78.5949,18.5689],[78.5986,18.5756],[78.6064,18.5813],[78.615,18.5845],[78.6401,18.5902],[78.653,18.5973],[78.6697,18.6161],[78.6737,18.6227],[78.6701,18.6266],[78.6626,18.6311],[78.6597,18.6329],[78.6541,18.6407],[78.6468,18.6573],[78.6415,18.6773],[78.6376,18.6885],[78.637,18.6937],[78.6397,18.7089],[78.6375,18.7173],[78.6368,18.7254],[78.6316,18.7303],[78.6201,18.7344],[78.6083,18.7341],[78.5988,18.7322],[78.5884,18.7332],[78.5796,18.7359],[78.5698,18.7431],[78.5557,18.7614],[78.556,18.77],[78.5629,18.7831],[78.5544,18.795],[78.5511,18.8137],[78.5488,18.8187],[78.5462,18.8221],[78.5451,18.8311],[78.5447,18.8442],[78.5426,18.8558],[78.5407,18.874],[78.5352,18.8894],[78.5303,18.8956],[78.5182,18.9073],[78.5173,18.9133],[78.5223,18.928],[78.5286,18.9416],[78.5388,18.9504],[78.5574,18.9725],[78.5655,18.9782],[78.5771,18.985],[78.5862,18.9859],[78.6074,18.9778],[78.6181,18.9758],[78.6252,18.9769],[78.6311,18.9789],[78.6449,18.9932],[78.649,18.9989],[78.6571,19.0122],[78.6654,19.0195],[78.6818,19.0254],[78.7004,19.0237],[78.7367,19.0089],[78.7539,19.0121],[78.7921,19.0346],[78.8205,19.0535],[78.8304,19.0561],[78.8451,19.0511],[78.8716,19.0363],[78.8844,19.0317],[78.8968,19.0287],[78.9052,19.0312],[78.9153,19.041],[78.9214,19.0494],[78.9282,19.0568],[78.9392,19.0647],[78.9499,19.0692],[78.9705,19.0711],[78.985,19.0688],[78.9927,19.0665],[78.996,19.0656],[78.9985,19.0649],[79.0142,19.0598],[79.0291,19.0538],[79.0389,19.0491],[79.0507,19.0419],[79.064,19.0319]]]}},{"type":"Feature","properties":{"district":"Khammam","centroid":[80.7897,17.6955],"bbox":[79.7851,16.7628,81.7944,18.6281]},"geometry":{"type":"Polygon","coordinates":[[[80.4884,18.6267],[80.4981,18.6177],[80.5107,18.6157],[80.5138,18.6131],[80.5153,18.6073],[80.518,18.6035],[80.5218,18.6008],[80.5286,18.5937],[80.5287,18.5928],[80.5293,18.5898],[80.53,18.5888],[80.532,18.5861],[80.5404,18.583],[80.5578,18.5728],[80.562,18.5696],[80.5679,18.5615],[80.5815,18.5575],[80.5956,18.5491],[80.601,18.545],[80.604,18.5407],[80.6108,18.5335],[80.6138,18.5261],[80.6213,18.5231],[80.627,18.5182],[80.6327,18.5188],[80.6335,18.5176],[80.635,18.5153],[80.6356,18.5116],[80.6364,18.5072],[80.6353,18.5057],[80.6335,18.5032],[80.634,18.5013],[80.6346,18.4986],[80.6368,18.4939],[80.6449,18.4835],[80.6483,18.4791],[80.6508,18.4723],[80.6624,18.4657],[80.6661,18.4626],[80.6698,18.4612],[80.6715,18.4597],[80.6732,18.4583],[80.6741,18.4563],[80.6805,18.4536],[80.6825,18.45],[80.6828,18.4472],[80.6831,18.4446],[80.6919,18.4405],[80.695,18.4408],[80.6989,18.436],[80.6953,18.4346],[80.6926,18.4289],[80.691,18.4193],[80.713,18.4057],[80.7173,18.4091],[80.7183,18.4098],[80.7225,18.4103],[80.7265,18.409],[80.7288,18.4038],[80.7271,18.4],[80.724,18.3952],[80.7157,18.3873],[80.7159,18.3855],[80.7163,18.3829],[80.7186,18.3792],[80.7227,18.3758],[80.7242,18.372],[80.7231,18.3679],[80.7229,18.3642],[80.7228,18.3613],[80.7241,18.3574],[80.7264,18.3503],[80.7348,18.3387],[80.7429,18.3222],[80.7444,18.3169],[80.7453,18.3051],[80.7446,18.3022],[80.7513,18.2975],[80.7529,18.2913],[80.757,18.2847],[80.7595,18.2826],[80.7616,18.2821],[80.7632,18.2817],[80.7664,18.2782],[80.7734,18.2649],[80.7774,18.2597],[80.7816,18.2596],[80.7849,18.2581],[80.7866,18.2559],[80.7881,18.254],[80.7883,18.2498],[80.7873,18.2466],[80.7843,18.2433],[80.7694,18.2364],[80.7569,18.2295],[80.7333,18.2188],[80.7323,18.2055],[80.7325,18.1942],[80.7346,18.1717],[80.7451,18.1648],[80.7539,18.1639],[80.7624,18.163],[80.7869,18.1642],[80.7936,18.1655],[80.7979,18.1663],[80.8109,18.1785],[80.8107,18.1833],[80.8179,18.1871],[80.8187,18.192],[80.8177,18.2128],[80.8184,18.219],[80.8172,18.2252],[80.8189,18.231],[80.8242,18.2336],[80.8296,18.2341],[80.8342,18.2333],[80.8396,18.228],[80.8591,18.226],[80.8617,18.2217],[80.8635,18.2172],[80.8675,18.2073],[80.8673,18.2032],[80.8656,18.201],[80.8613,18.1987],[80.8565,18.1984],[80.8492,18.2002],[80.8488,18.1992],[80.8482,18.1977],[80.8485,18.1959],[80.8489,18.1932],[80.8522,18.1835],[80.8526,18.1785],[80.8517,18.1684],[80.8558,18.1517],[80.8555,18.1492],[80.8553,18.1468],[80.8555,18.145],[80.8558,18.1429],[80.8584,18.1391],[80.8604,18.1375],[80.8616,18.1365],[80.862,18.1327],[80.8811,18.1325],[80.8929,18.1345],[80.9007,18.1347],[80.912,18.1385],[80.932,18.1494],[80.9358,18.1525],[80.9367,18.1548],[80.9442,18.1571],[80.9499,18.1642],[80.9542,18.167],[80.9656,18.1684],[80.9737,18.1681],[80.9738,18.1583],[80.9748,18.1519],[80.9726,18.1436],[80.9675,18.138],[80.9494,18.1232],[80.9475,18.1168],[80.9498,18.1037],[80.9498,18.0983],[80.9484,18.0913],[80.946,18.0842],[80.944,18.081],[80.9524,18.0719],[80.9635,18.0498],[80.966,18.0435],[80.9623,18.0315],[80.9626,18.0312],[80.9632,18.0282],[80.9639,18.0244],[80.9662,18.0186],[80.9685,18.0118],[80.9699,18.0031],[80.9715,17.9974],[80.9726,17.9932],[80.9731,17.9864],[80.9738,17.9768],[80.976,17.9629],[80.9781,17.9496],[80.9798,17.9457],[80.9801,17.9433],[80.9806,17.9399],[80.9833,17.935],[80.9846,17.9229],[80.992,17.9194],[80.9943,17.9142],[80.9972,17.8952],[81.0019,17.8647],[81.0033,17.8491],[81.0043,17.8383],[81.0126,17.8167],[81.0324,17.7897],[81.0377,17.7862],[81.0452,17.784],[81.056,17.7828],[81.0613,17.7836],[81.0658,17.7842],[81.0691,17.7851],[81.0736,17.7863],[81.0765,17.7905],[81.0796,17.795],[81.0871,17.8033],[81.0891,17.8109],[81.0977,17.8171],[81.109,17.8231],[81.1212,17.8283],[81.1596,17.8526],[81.1764,17.8491],[81.1838,17.8493],[81.1873,17.8483],[81.192,17.8471],[81.2135,17.833],[81.2204,17.8294],[81.2279,17.8263],[81.254,17.8121],[81.2634,17.8105],[81.2981,17.8099],[81.3151,17.8123],[81.326,17.8124],[81.3354,17.8113],[81.3445,17.8116],[81.3575,17.8104],[81.3611,17.8096],[81.3676,17.8081],[81.3744,17.8053],[81.3841,17.8035],[81.385,17.8066],[81.3943,17.8081],[81.4028,17.8053],[81.4093,17.8048],[81.4145,17.8101],[81.4143,17.8164],[81.4194,17.8206],[81.4259,17.8213],[81.4339,17.8158],[81.4376,17.8153],[81.4594,17.8247],[81.4668,17.8249],[81.4701,17.8232],[81.4727,17.8179],[81.4746,17.81],[81.4787,17.8047],[81.4812,17.8029],[81.4858,17.8026],[81.4963,17.8065],[81.5113,17.8066],[81.5257,17.8109],[81.5539,17.8164],[81.5646,17.8257],[81.5687,17.8279],[81.5749,17.8273],[81.594,17.8191],[81.5997,17.8154],[81.6112,17.8154],[81.6157,17.822],[81.624,17.8244],[81.6314,17.8304],[81.6366,17.8363],[81.6428,17.8393],[81.6461,17.8469],[81.646,17.8563],[81.6491,17.8625],[81.6527,17.8682],[81.657,17.8728],[81.6631,17.8769],[81.6681,17.8784],[81.6777,17.8776],[81.6832,17.8795],[81.6883,17.8848],[81.6979,17.8755],[81.6993,17.8697],[81.7032,17.8611],[81.7263,17.8741],[81.7583,17.8934],[81.7634,17.8854],[81.7689,17.8787],[81.7814,17.8707],[81.7875,17.8625],[81.7928,17.8525],[81.7944,17.8442],[81.7878,17.8392],[81.7824,17.832],[81.7639,17.8299],[81.7529,17.8183],[81.7389,17.8216],[81.7296,17.8193],[81.7234,17.8152],[81.7095,17.8051],[81.704,17.7996],[81.6982,17.7845],[81.6914,17.7757],[81.6848,17.7706],[81.6747,17.7671],[81.653,17.7656],[81.6419,17.7656],[81.6231,17.7628],[81.6186,17.7586],[81.6128,17.7469],[81.6092,17.7436],[81.5819,17.7307],[81.5766,17.7261],[81.573,17.7187],[81.572,17.7118],[81.5711,17.7029],[81.5712,17.6879],[81.5682,17.6828],[81.5602,17.6767],[81.5536,17.6664],[81.5461,17.6507],[81.5443,17.6453],[81.5341,17.6304],[81.519,17.6188],[81.5119,17.6099],[81.5093,17.6036],[81.5093,17.5983],[81.5079,17.5953],[81.5029,17.5899],[81.5127,17.583],[81.5209,17.5757],[81.5239,17.5726],[81.5237,17.5697],[81.5203,17.5646],[81.5137,17.5573],[81.5091,17.5493],[81.5014,17.5394],[81.4995,17.5315],[81.498,17.5101],[81.4995,17.5015],[81.4982,17.49],[81.4936,17.477],[81.4937,17.466],[81.4959,17.4604],[81.4954,17.4538],[81.4934,17.4488],[81.482,17.4322],[81.4722,17.4195],[81.4573,17.4054],[81.4516,17.3983],[81.4461,17.3907],[81.4415,17.3817],[81.4336,17.3749],[81.4201,17.3722],[81.4183,17.3664],[81.4156,17.3616],[81.4064,17.3614],[81.3852,17.3551],[81.3786,17.3561],[81.3718,17.3572],[81.364,17.3603],[81.3498,17.3685],[81.3433,17.3757],[81.3429,17.3854],[81.3373,17.39],[81.3304,17.3921],[81.3247,17.3906],[81.3225,17.3892],[81.3116,17.3748],[81.3016,17.3597],[81.2988,17.3521],[81.2892,17.3375],[81.2818,17.3298],[81.2672,17.32],[81.2622,17.3219],[81.2575,17.3227],[81.2343,17.3228],[81.2188,17.3217],[81.1903,17.3274],[81.1815,17.3222],[81.1782,17.3145],[81.172,17.3055],[81.1706,17.2965],[81.1711,17.2667],[81.1746,17.2604],[81.1806,17.2546],[81.168,17.2423],[81.1628,17.2326],[81.1455,17.2317],[81.1182,17.2246],[81.0845,17.2136],[81.0622,17.2041],[81.0538,17.2101],[81.0465,17.2138],[81.0439,17.2045],[81.04,17.1999],[81.0349,17.1973],[81.0315,17.1924],[81.0262,17.1867],[81.0054,17.1844],[80.9977,17.182],[80.9913,17.1797],[80.9852,17.1794],[80.9663,17.1845],[80.956,17.1882],[80.9477,17.1933],[80.939,17.2004],[80.9306,17.205],[80.9206,17.2058],[80.9138,17.2053],[80.9053,17.2013],[80.9076,17.1929],[80.907,17.1838],[80.9085,17.178],[80.913,17.1738],[80.9149,17.1698],[80.914,17.1608],[80.9122,17.1535],[80.9133,17.146],[80.9094,17.1425],[80.904,17.1411],[80.8962,17.1408],[80.8889,17.1411],[80.8768,17.1452],[80.8703,17.1463],[80.8668,17.1246],[80.8635,17.118],[80.855,17.1114],[80.8642,17.0958],[80.8624,17.0856],[80.8625,17.0815],[80.8565,17.0685],[80.8588,17.0509],[80.8549,17.044],[80.8505,17.0402],[80.8449,17.0328],[80.8325,17.0257],[80.8293,17.0323],[80.8232,17.0378],[80.8032,17.0425],[80.7928,17.043],[80.7853,17.0476],[80.7802,17.0488],[80.7661,17.0503],[80.7466,17.0549],[80.7257,17.0646],[80.7126,17.0655],[80.6952,17.0683],[80.684,17.0687],[80.6814,17.0643],[80.6756,17.0613],[80.6678,17.0599],[80.6606,17.0567],[80.6492,17.0546],[80.6396,17.0551],[80.6339,17.0589],[80.6377,17.0656],[80.6378,17.0719],[80.6444,17.0771],[80.6554,17.084],[80.6566,17.0878],[80.6463,17.0945],[80.6364,17.097],[80.6252,17.1017],[80.6298,17.11],[80.6239,17.1119],[80.6165,17.1157],[80.6129,17.1166],[80.6039,17.1155],[80.5951,17.1196],[80.5803,17.131],[80.5735,17.1353],[80.5602,17.138],[80.5491,17.1236],[80.5417,17.1204],[80.5354,17.1198],[80.5292,17.1136],[80.5194,17.1082],[80.5117,17.1062],[80.4961,17.1079],[80.4965,17.1013],[80.4924,17.0924],[80.4887,17.0873],[80.4868,17.0829],[80.4846,17.0676],[80.4847,17.0563],[80.4822,17.0503],[80.4751,17.0428],[80.4717,17.0381],[80.4642,17.0372],[80.4529,17.037],[80.4462,17.017],[80.4327,17.0218],[80.4205,17.0249],[80.4178,17.0286],[80.4143,17.0418],[80.4009,17.0542],[80.3989,17.0598],[80.3998,17.0653],[80.3973,17.0739],[80.3951,17.0776],[80.3932,17.0778],[80.3901,17.0762],[80.3791,17.0662],[80.3742,17.0631],[80.367,17.0566],[80.3678,17.0527],[80.3716,17.0475],[80.3784,17.0341],[80.3772,17.0279],[80.3779,17.0233],[80.3838,17.0198],[80.3887,17.0141],[80.3879,17.0073],[80.3865,17.0029],[80.382,17.0],[80.3712,16.9958],[80.3712,16.9932],[80.3716,16.9871],[80.3697,16.983],[80.3611,16.9745],[80.3582,16.9706],[80.3604,16.9705],[80.3808,16.9625],[80.3976,16.957],[80.4123,16.9542],[80.4425,16.9449],[80.4531,16.9383],[80.4632,16.9302],[80.4699,16.9265],[80.4769,16.9212],[80.4878,16.9174],[80.4856,16.927],[80.4869,16.9369],[80.4913,16.9482],[80.5098,16.9424],[80.5207,16.9364],[80.5317,16.9502],[80.5695,16.9269],[80.5842,16.9265],[80.5891,16.9167],[80.5903,16.9116],[80.5894,16.9071],[80.5859,16.9043],[80.5821,16.9031],[80.5812,16.8968],[80.5834,16.8906],[80.5858,16.8872],[80.5867,16.8739],[80.5765,16.8731],[80.565,16.869],[80.5648,16.8499],[80.564,16.8426],[80.5624,16.8363],[80.5546,16.8248],[80.556,16.8184],[80.5612,16.8171],[80.567,16.8171],[80.5718,16.8121],[80.5858,16.8067],[80.5936,16.7979],[80.5978,16.792],[80.6041,16.7878],[80.5975,16.7851],[80.5693,16.7708],[80.5628,16.7628],[80.5465,16.7677],[80.5301,16.7701],[80.5181,16.7688],[80.511,16.7699],[80.4895,16.7759],[80.4846,16.7813],[80.4791,16.785],[80.471,16.7883],[80.4564,16.79],[80.4551,16.8065],[80.4526,16.8153],[80.4448,16.8194],[80.4318,16.8239],[80.4321,16.8272],[80.4228,16.8293],[80.4214,16.8371],[80.4187,16.8423],[80.3997,16.8497],[80.4002,16.837],[80.3991,16.8316],[80.3942,16.8252],[80.3794,16.8195],[80.3778,16.8125],[80.3759,16.8106],[80.3729,16.8111],[80.3671,16.8268],[80.3647,16.8389],[80.3612,16.8504],[80.3586,16.8549],[80.3509,16.8533],[80.335,16.8557],[80.3373,16.8671],[80.3273,16.871],[80.3192,16.8709],[80.3184,16.8774],[80.316,16.884],[80.3161,16.8947],[80.3133,16.912],[80.3154,16.9124],[80.3078,16.9238],[80.304,16.9395],[80.3014,16.9559],[80.289,16.9768],[80.2762,16.9932],[80.2622,17.0106],[80.2503,17.0074],[80.2411,17.0028],[80.2357,17.0023],[80.2322,17.0049],[80.2178,17.0196],[80.2132,17.0192],[80.2013,17.0131],[80.1955,17.018],[80.1961,17.0257],[80.1943,17.0425],[80.1821,17.0449],[80.1705,17.0304],[80.1672,17.0236],[80.1491,17.0081],[80.1425,17.0015],[80.1406,16.9933],[80.1339,16.9854],[80.1269,16.9853],[80.1201,16.9868],[80.1147,16.9859],[80.1128,16.9823],[80.1058,16.9813],[80.0995,16.9828],[80.0877,16.9874],[80.0839,16.9777],[80.0842,16.9632],[80.0459,16.9653],[80.0441,16.9802],[80.0433,16.993],[80.0474,17.0009],[80.054,17.0101],[80.0495,17.0193],[80.04,17.023],[80.0288,17.0357],[80.0128,17.0498],[80.0016,17.0558],[79.9918,17.0624],[79.9802,17.0814],[79.9712,17.0935],[79.9615,17.1012],[79.9453,17.1185],[79.9392,17.1233],[79.933,17.1261],[79.9193,17.1254],[79.9126,17.1261],[79.9056,17.1288],[79.9059,17.1343],[79.9071,17.1409],[79.906,17.1465],[79.9011,17.151],[79.8837,17.1598],[79.8754,17.1664],[79.8699,17.1719],[79.8676,17.18],[79.87,17.1947],[79.8724,17.2026],[79.8768,17.2069],[79.8916,17.2119],[79.8888,17.2295],[79.8905,17.2407],[79.8896,17.2465],[79.8829,17.2564],[79.872,17.2614],[79.8435,17.2653],[79.8313,17.2684],[79.8182,17.2699],[79.8121,17.2744],[79.8072,17.2805],[79.7891,17.306],[79.7851,17.3135],[79.7948,17.3218],[79.8038,17.3275],[79.8116,17.3304],[79.8245,17.3276],[79.833,17.3225],[79.8445,17.3294],[79.8571,17.3274],[79.8644,17.3271],[79.8705,17.3358],[79.8716,17.3436],[79.8717,17.353],[79.8758,17.3532],[79.884,17.3485],[79.8886,17.3656],[79.8984,17.37],[79.915,17.3684],[79.9237,17.3688],[79.9308,17.3728],[79.9278,17.3847],[79.9324,17.3882],[79.9412,17.3886],[79.9481,17.3907],[79.9619,17.3983],[79.9788,17.3943],[79.9822,17.3844],[79.9821,17.3675],[79.9921,17.3565],[80.0315,17.3468],[80.0405,17.346],[80.0465,17.3406],[80.0562,17.345],[80.061,17.3496],[80.068,17.3538],[80.0727,17.3609],[80.081,17.3582],[80.0872,17.3543],[80.0951,17.3531],[80.1034,17.3575],[80.1058,17.3648],[80.1096,17.3685],[80.1128,17.3748],[80.1196,17.3781],[80.1231,17.3836],[80.1285,17.3855],[80.1353,17.3866],[80.1471,17.3799],[80.1511,17.3726],[80.1541,17.3718],[80.1541,17.3801],[80.1527,17.3876],[80.1539,17.401],[80.1603,17.4266],[80.1618,17.4362],[80.1614,17.4484],[80.1208,17.4401],[80.1205,17.4567],[80.1222,17.465],[80.1201,17.4757],[80.1105,17.4804],[80.099,17.4843],[80.0923,17.4903],[80.0822,17.5074],[80.0763,17.5215],[80.077,17.5308],[80.0791,17.5421],[80.0722,17.5494],[80.0771,17.56],[80.0794,17.5694],[80.0692,17.5777],[80.0609,17.5823],[80.0548,17.5825],[80.0519,17.5865],[80.0464,17.5899],[80.0493,17.6019],[80.0567,17.6194],[80.0662,17.6364],[80.0658,17.6416],[80.0681,17.6459],[80.0807,17.6503],[80.0823,17.6534],[80.0772,17.6673],[80.0677,17.6757],[80.0368,17.6912],[80.0387,17.7009],[80.0439,17.7091],[80.0522,17.7065],[80.0575,17.7035],[80.0686,17.7053],[80.0839,17.7117],[80.118,17.7233],[80.1286,17.7282],[80.1359,17.7396],[80.1468,17.7426],[80.1564,17.747],[80.158,17.739],[80.1607,17.7333],[80.1629,17.7216],[80.1661,17.7194],[80.1697,17.7184],[80.1645,17.7104],[80.1653,17.7059],[80.2061,17.7333],[80.2178,17.7401],[80.231,17.7459],[80.2346,17.7357],[80.2378,17.7303],[80.2439,17.7332],[80.244,17.7361],[80.2485,17.7372],[80.252,17.7433],[80.2545,17.7625],[80.2505,17.7769],[80.2461,17.8218],[80.2651,17.8542],[80.2698,17.8652],[80.2722,17.8763],[80.2721,17.8904],[80.2759,17.9032],[80.2676,17.9147],[80.2652,17.9277],[80.2691,17.9431],[80.2703,17.9547],[80.2697,17.9623],[80.2866,17.9609],[80.2918,17.9618],[80.301,17.967],[80.3021,17.9676],[80.3059,17.9713],[80.3205,17.9952],[80.3239,17.9999],[80.3376,18.0114],[80.3386,18.0228],[80.3412,18.0308],[80.3445,18.0349],[80.349,18.0382],[80.3677,18.0585],[80.3875,18.0762],[80.3973,18.0725],[80.4045,18.068],[80.4125,18.0616],[80.4278,18.0532],[80.4312,18.0542],[80.4402,18.0593],[80.4435,18.0585],[80.4522,18.0542],[80.4489,18.0612],[80.4493,18.0731],[80.4541,18.0773],[80.4551,18.0791],[80.4559,18.0803],[80.4601,18.0905],[80.4663,18.1053],[80.4699,18.1119],[80.4723,18.1162],[80.4718,18.1201],[80.4604,18.1289],[80.4824,18.1366],[80.4925,18.1334],[80.4983,18.1235],[80.5099,18.1147],[80.5117,18.1096],[80.5155,18.1079],[80.5235,18.0982],[80.5298,18.0932],[80.5366,18.0904],[80.5392,18.091],[80.5457,18.098],[80.5486,18.0982],[80.5578,18.0968],[80.563,18.0942],[80.5807,18.0813],[80.586,18.0786],[80.5904,18.0764],[80.5946,18.0772],[80.6019,18.0844],[80.604,18.0908],[80.6048,18.093],[80.6084,18.0978],[80.6102,18.1066],[80.6121,18.1073],[80.6124,18.1074],[80.6227,18.1035],[80.6289,18.1028],[80.6313,18.1048],[80.637,18.1153],[80.6366,18.1192],[80.619,18.1212],[80.6188,18.1246],[80.6205,18.1291],[80.6219,18.1311],[80.624,18.134],[80.6411,18.1287],[80.6486,18.1281],[80.6505,18.1372],[80.6491,18.1402],[80.6486,18.1415],[80.6426,18.1487],[80.6435,18.15],[80.6438,18.1504],[80.6473,18.1499],[80.6503,18.1483],[80.6532,18.1497],[80.6544,18.1575],[80.6585,18.1651],[80.655,18.169],[80.6517,18.1701],[80.6398,18.1803],[80.6261,18.186],[80.6263,18.1877],[80.6243,18.1905],[80.6233,18.1948],[80.621,18.1986],[80.6148,18.1983],[80.61,18.1993],[80.605,18.2072],[80.5945,18.2153],[80.5816,18.2221],[80.5762,18.2266],[80.5663,18.233],[80.5554,18.2389],[80.5505,18.2408],[80.5352,18.2511],[80.5304,18.2556],[80.5195,18.2594],[80.5124,18.2601],[80.5028,18.2586],[80.4968,18.2608],[80.4912,18.2675],[80.4886,18.2746],[80.4846,18.2799],[80.4746,18.2896],[80.47,18.2952],[80.4667,18.3014],[80.4622,18.3187],[80.465,18.3302],[80.4647,18.3355],[80.4598,18.3498],[80.4621,18.3587],[80.4675,18.3716],[80.4679,18.3802],[80.4652,18.3842],[80.4542,18.3918],[80.4508,18.3954],[80.4503,18.3994],[80.4534,18.4153],[80.4553,18.4217],[80.458,18.4273],[80.459,18.4325],[80.4577,18.4422],[80.455,18.4461],[80.4464,18.452],[80.4335,18.4553],[80.4283,18.4554],[80.422,18.4536],[80.4149,18.4551],[80.4083,18.4552],[80.4039,18.4533],[80.3969,18.4533],[80.3883,18.456],[80.3814,18.4594],[80.3767,18.4637],[80.3736,18.4686],[80.3716,18.4792],[80.3728,18.4916],[80.3717,18.4959],[80.3763,18.5006],[80.3744,18.5078],[80.374,18.5168],[80.3708,18.5192],[80.3688,18.5229],[80.3692,18.5286],[80.3704,18.5328],[80.3735,18.5383],[80.3894,18.5519],[80.3927,18.5574],[80.3945,18.5623],[80.3949,18.5669],[80.3908,18.578],[80.3816,18.5936],[80.3856,18.5965],[80.3894,18.5993],[80.3933,18.603],[80.4021,18.6072],[80.407,18.6077],[80.416,18.6088],[80.4176,18.6107],[80.4502,18.6264],[80.4552,18.6249],[80.463,18.6227],[80.4677,18.6228],[80.4722,18.6237],[80.4801,18.6276],[80.482,18.6279],[80.4835,18.6281],[80.4884,18.6267]]]}},{"type":"Feature","properties":{"district":"Mahbubnagar","centroid":[78.2325,16.5302],"bbox":[77.2352,15.8272,79.2298,17.2332]},"geometry":{"type":"Polygon","coordinates":[[[77.7863,17.2218],[77.7846,17.2147],[77.7735,17.2086],[77.7713,17.2059],[77.7675,17.2047],[77.7622,17.1985],[77.7629,17.1928],[77.7679,17.1905],[77.7719,17.1833],[77.7749,17.1741],[77.7781,17.1734],[77.7831,17.1701],[77.7843,17.1628],[77.7832,17.155],[77.7834,17.1499],[77.7662,17.1254],[77.7702,17.1225],[77.7735,17.1167],[77.7721,17.1131],[77.7744,17.1098],[77.775,17.1074],[77.7645,17.1032],[77.7569,17.0859],[77.7592,17.0782],[77.7571,17.0707],[77.7503,17.0581],[77.7537,17.0551],[77.7624,17.0566],[77.7704,17.0547],[77.774,17.0446],[77.7835,17.0391],[77.7785,17.025],[77.7737,17.0142],[77.7639,17.0155],[77.7584,17.0073],[77.7598,16.9995],[77.7584,16.9967],[77.757,16.9898],[77.7531,16.9838],[77.7567,16.9785],[77.7575,16.9738],[77.7536,16.9657],[77.7445,16.9518],[77.7381,16.9454],[77.7261,16.9391],[77.7262,16.936],[77.7356,16.9341],[77.7363,16.9198],[77.7399,16.9088],[77.7367,16.8965],[77.7362,16.8888],[77.7346,16.8843],[77.7333,16.8768],[77.7536,16.8684],[77.7582,16.8682],[77.7641,16.8726],[77.7685,16.8746],[77.7776,16.8739],[77.7906,16.8706],[77.7995,16.8805],[77.8047,16.8849],[77.8093,16.8854],[77.8164,16.88],[77.8171,16.8745],[77.8166,16.8608],[77.823,16.857],[77.8366,16.8526],[77.8375,16.8547],[77.8397,16.8558],[77.8445,16.8529],[77.8536,16.8502],[77.858,16.8556],[77.8619,16.8578],[77.8636,16.8551],[77.8612,16.8516],[77.8609,16.8491],[77.8678,16.8497],[77.8716,16.8514],[77.9047,16.857],[77.9103,16.8547],[77.9092,16.849],[77.9126,16.846],[77.9189,16.8432],[77.9243,16.8442],[77.9325,16.8574],[77.9365,16.86],[77.9507,16.8632],[77.9587,16.852],[77.9629,16.8475],[77.9672,16.8454],[77.9725,16.8455],[77.9783,16.8508],[77.9825,16.8561],[77.9855,16.8693],[77.9798,16.8744],[77.9771,16.869],[77.9738,16.8656],[77.9639,16.8649],[77.9627,16.8681],[77.9666,16.876],[77.9646,16.885],[77.9714,16.8861],[77.9792,16.8923],[77.9948,16.8947],[78.0058,16.8974],[78.0094,16.9016],[78.0089,16.9074],[78.0115,16.9102],[78.0104,16.9161],[78.0083,16.923],[78.0042,16.9305],[78.0095,16.9391],[78.0089,16.9458],[77.9948,16.9481],[77.9876,16.9515],[77.9835,16.9557],[77.9934,16.9688],[77.9948,16.9715],[77.9978,16.9738],[77.9957,16.9751],[77.9948,16.9757],[77.9921,16.9786],[77.9919,16.9852],[77.9799,16.9956],[77.9781,16.9969],[77.9732,16.9983],[77.9741,17.0042],[77.969,17.0051],[77.9636,17.0081],[77.9573,17.0074],[77.9459,17.0118],[77.9459,17.0154],[77.9411,17.0156],[77.9354,17.0195],[77.9315,17.0243],[77.9281,17.0333],[77.9279,17.0417],[77.9205,17.0472],[77.918,17.0584],[77.9245,17.063],[77.9343,17.0673],[77.9383,17.0707],[77.9455,17.0698],[77.9424,17.0759],[77.9331,17.0762],[77.9297,17.0791],[77.9309,17.0818],[77.9368,17.0819],[77.9401,17.0847],[77.9486,17.0863],[77.9508,17.0935],[77.9595,17.0934],[77.9669,17.0952],[77.9723,17.094],[77.9806,17.0987],[77.9855,17.0991],[77.9865,17.1063],[77.9886,17.1125],[77.988,17.1168],[77.9869,17.1188],[77.9875,17.1229],[77.9951,17.127],[78.0044,17.1355],[78.0104,17.1443],[78.0189,17.1634],[78.0228,17.1689],[78.0377,17.1732],[78.0447,17.1823],[78.0503,17.1919],[78.0626,17.1948],[78.0723,17.1934],[78.0804,17.1911],[78.0834,17.1831],[78.0823,17.1719],[78.0898,17.1668],[78.0933,17.1472],[78.0815,17.1306],[78.0802,17.1213],[78.0853,17.1116],[78.0971,17.0972],[78.1131,17.1052],[78.1268,17.1082],[78.1379,17.1056],[78.1588,17.0976],[78.1773,17.0957],[78.1786,17.0998],[78.1798,17.1096],[78.1746,17.1292],[78.1859,17.1363],[78.1877,17.1418],[78.1817,17.1448],[78.1733,17.1466],[78.1665,17.1518],[78.1654,17.1587],[78.168,17.1669],[78.1845,17.1736],[78.1928,17.1756],[78.2084,17.1815],[78.2148,17.1889],[78.2174,17.1981],[78.2213,17.2019],[78.2375,17.2021],[78.2479,17.2003],[78.2566,17.2018],[78.2601,17.211],[78.2654,17.2208],[78.2769,17.224],[78.2888,17.22],[78.2932,17.208],[78.2957,17.1916],[78.3017,17.1794],[78.3047,17.169],[78.3041,17.1584],[78.3021,17.1462],[78.3042,17.1419],[78.3139,17.1357],[78.3232,17.1278],[78.3341,17.116],[78.3394,17.1033],[78.3463,17.0954],[78.3482,17.0871],[78.3556,17.0853],[78.3614,17.0807],[78.3534,17.0754],[78.3448,17.0784],[78.3446,17.0701],[78.3601,17.0648],[78.3656,17.057],[78.3749,17.0399],[78.3832,17.0302],[78.3959,17.0235],[78.4073,17.0187],[78.4201,17.0134],[78.4371,17.003],[78.4471,16.9952],[78.4475,16.9884],[78.4526,16.9858],[78.4548,16.977],[78.4601,16.9769],[78.4682,16.9802],[78.4731,16.9831],[78.4778,16.9872],[78.4811,16.9952],[78.485,17.0002],[78.4903,17.0045],[78.4981,17.0084],[78.5046,17.0084],[78.5096,17.0063],[78.5113,17.0036],[78.5118,16.9993],[78.511,16.9951],[78.5163,16.9873],[78.5254,16.9823],[78.5427,16.9798],[78.5559,16.9757],[78.562,16.9622],[78.568,16.9559],[78.5788,16.9468],[78.5972,16.9501],[78.6085,16.9539],[78.6163,16.9537],[78.6435,16.9503],[78.65,16.9461],[78.656,16.9403],[78.6697,16.9329],[78.6806,16.9255],[78.6951,16.9278],[78.7116,16.9215],[78.7266,16.9148],[78.7437,16.9045],[78.7351,16.8948],[78.7244,16.8763],[78.7214,16.8659],[78.7295,16.8549],[78.7446,16.8489],[78.7544,16.8607],[78.7637,16.8692],[78.7713,16.8751],[78.7778,16.8626],[78.7776,16.8527],[78.7714,16.8384],[78.7777,16.8325],[78.7868,16.8206],[78.7976,16.8174],[78.7957,16.8085],[78.7886,16.7998],[78.7904,16.7863],[78.7904,16.7737],[78.7861,16.7549],[78.7819,16.7473],[78.7754,16.7411],[78.7704,16.7392],[78.756,16.7391],[78.7519,16.7322],[78.7564,16.7216],[78.7507,16.701],[78.7413,16.6983],[78.7338,16.6942],[78.7204,16.6816],[78.7119,16.6752],[78.7052,16.6637],[78.7106,16.6429],[78.6946,16.6432],[78.6829,16.6425],[78.6731,16.6436],[78.6673,16.6428],[78.6709,16.633],[78.6782,16.6177],[78.6889,16.6139],[78.704,16.5907],[78.7113,16.5755],[78.7028,16.5643],[78.6954,16.5574],[78.6882,16.5554],[78.6784,16.5477],[78.6729,16.5499],[78.6716,16.5579],[78.6667,16.5635],[78.6643,16.558],[78.6621,16.5487],[78.6596,16.5361],[78.6499,16.5414],[78.6328,16.5445],[78.6301,16.5318],[78.6285,16.5292],[78.6212,16.5276],[78.6166,16.5248],[78.6115,16.5232],[78.6074,16.5174],[78.611,16.5133],[78.6246,16.52],[78.6298,16.5187],[78.641,16.5282],[78.6528,16.5214],[78.658,16.5206],[78.6667,16.5222],[78.6722,16.5275],[78.6756,16.532],[78.6867,16.5292],[78.7111,16.5318],[78.7424,16.5298],[78.7516,16.5299],[78.7593,16.5281],[78.7656,16.525],[78.7717,16.5196],[78.7875,16.5103],[78.7978,16.5117],[78.8183,16.5267],[78.8287,16.536],[78.8377,16.5413],[78.8491,16.5444],[78.8549,16.5434],[78.8633,16.538],[78.8665,16.5367],[78.8809,16.5415],[78.8996,16.5442],[78.9057,16.5442],[78.9176,16.5301],[78.921,16.5176],[78.9249,16.5112],[78.9553,16.4944],[78.9737,16.4876],[78.9927,16.4888],[79.0098,16.4834],[79.0615,16.4539],[79.0912,16.4328],[79.1104,16.4163],[79.146,16.3985],[79.1834,16.375],[79.2115,16.3628],[79.2232,16.3504],[79.2279,16.3368],[79.2298,16.3002],[79.2251,16.2501],[79.2187,16.2396],[79.2075,16.2307],[79.192,16.2227],[79.1766,16.2171],[79.1627,16.2202],[79.1512,16.2246],[79.1425,16.2293],[79.1332,16.2364],[79.123,16.2379],[79.0686,16.2381],[79.0541,16.2426],[79.0425,16.245],[79.0309,16.2457],[79.0201,16.2443],[79.0102,16.2404],[78.9924,16.2283],[78.9781,16.2231],[78.959,16.2172],[78.9411,16.2098],[78.9255,16.2023],[78.9081,16.191],[78.9055,16.1819],[78.9056,16.1649],[78.9209,16.1337],[78.9219,16.1219],[78.9173,16.1135],[78.9134,16.1088],[78.9105,16.1052],[78.9012,16.0976],[78.8891,16.0986],[78.8727,16.1102],[78.8694,16.1216],[78.868,16.1353],[78.8663,16.1439],[78.8629,16.1531],[78.8565,16.1586],[78.8463,16.1595],[78.8378,16.1567],[78.8321,16.1518],[78.8305,16.1422],[78.8313,16.133],[78.8339,16.1201],[78.8381,16.1109],[78.8403,16.1028],[78.8394,16.0942],[78.8365,16.0874],[78.8216,16.0622],[78.8138,16.0522],[78.808,16.0462],[78.79,16.0327],[78.775,16.0236],[78.7539,16.021],[78.739,16.0211],[78.726,16.023],[78.7137,16.0267],[78.6866,16.0404],[78.675,16.049],[78.6684,16.0558],[78.6578,16.0714],[78.6467,16.0827],[78.6365,16.0914],[78.617,16.0989],[78.6035,16.0964],[78.5926,16.0872],[78.5764,16.0703],[78.5671,16.0619],[78.5591,16.0564],[78.5469,16.0562],[78.5329,16.0623],[78.5208,16.0651],[78.4956,16.0731],[78.451,16.081],[78.421,16.0828],[78.4057,16.0809],[78.3842,16.0718],[78.37,16.0598],[78.3531,16.0545],[78.3404,16.0528],[78.3311,16.0471],[78.3236,16.0372],[78.3162,16.0292],[78.2922,16.0285],[78.2811,16.0321],[78.2682,16.0348],[78.2567,16.0313],[78.2514,16.0257],[78.2587,16.0051],[78.2597,15.9947],[78.2529,15.9784],[78.2511,15.9708],[78.2484,15.9683],[78.2474,15.96],[78.244,15.947],[78.2429,15.937],[78.238,15.9291],[78.2279,15.9235],[78.2054,15.9171],[78.1967,15.9122],[78.18,15.9004],[78.1792,15.8949],[78.1815,15.8877],[78.1791,15.8798],[78.1738,15.8725],[78.1707,15.8664],[78.1687,15.8532],[78.1647,15.849],[78.1509,15.849],[78.1484,15.85],[78.1379,15.8502],[78.1258,15.8489],[78.1269,15.8349],[78.1198,15.8303],[78.1096,15.8272],[78.1011,15.8279],[78.0637,15.8446],[78.0585,15.8504],[78.0489,15.8708],[78.0407,15.8722],[78.0398,15.8981],[78.0363,15.9021],[78.0288,15.9027],[78.0242,15.8986],[78.017,15.8951],[78.0147,15.8888],[78.0066,15.872],[78.0019,15.8592],[77.9936,15.861],[77.9729,15.8741],[77.9631,15.8759],[77.944,15.8749],[77.9283,15.8765],[77.9076,15.8849],[77.8877,15.8959],[77.8764,15.896],[77.8669,15.8924],[77.8557,15.8758],[77.8501,15.8738],[77.8398,15.8739],[77.8338,15.8755],[77.8253,15.8738],[77.8177,15.8695],[77.8092,15.867],[77.7992,15.8653],[77.7898,15.8666],[77.7789,15.8693],[77.7702,15.8733],[77.76,15.8768],[77.7496,15.8759],[77.7388,15.8785],[77.732,15.8822],[77.7249,15.8848],[77.7161,15.8866],[77.7073,15.8841],[77.6994,15.8804],[77.6925,15.8753],[77.6835,15.8739],[77.6589,15.8765],[77.6482,15.8789],[77.6396,15.8831],[77.632,15.8918],[77.6257,15.8991],[77.6188,15.9038],[77.6138,15.9078],[77.6064,15.9117],[77.5987,15.9087],[77.5884,15.907],[77.5801,15.9102],[77.5716,15.9123],[77.5488,15.9137],[77.5317,15.9161],[77.5095,15.9209],[77.5146,15.9434],[77.5159,15.9575],[77.5149,15.9632],[77.509,15.9674],[77.5055,15.9727],[77.5055,15.9788],[77.5084,15.9958],[77.5101,16.0023],[77.5017,16.0055],[77.5003,16.0114],[77.4986,16.0139],[77.4988,16.0172],[77.4921,16.0256],[77.4907,16.0306],[77.4957,16.0477],[77.4945,16.0498],[77.4962,16.0548],[77.4995,16.0543],[77.5029,16.0732],[77.493,16.0796],[77.4929,16.0838],[77.4979,16.0972],[77.5035,16.1015],[77.5094,16.1035],[77.5027,16.1095],[77.4954,16.1147],[77.4902,16.1162],[77.4867,16.1158],[77.4886,16.1265],[77.4881,16.1474],[77.4868,16.1531],[77.4836,16.1586],[77.4884,16.1787],[77.4949,16.1871],[77.4949,16.1954],[77.4937,16.2062],[77.4953,16.213],[77.5023,16.2157],[77.5088,16.2149],[77.5112,16.2172],[77.5108,16.2233],[77.5022,16.2248],[77.4936,16.223],[77.4888,16.2243],[77.4889,16.2418],[77.4876,16.2498],[77.499,16.2579],[77.5002,16.2607],[77.5012,16.2678],[77.5131,16.2707],[77.5193,16.2709],[77.5244,16.2698],[77.5258,16.267],[77.5338,16.2626],[77.5398,16.2826],[77.5432,16.2871],[77.5495,16.2907],[77.565,16.2977],[77.5693,16.2948],[77.5743,16.2889],[77.5807,16.2861],[77.5903,16.2869],[77.5923,16.2901],[77.5884,16.2957],[77.591,16.3046],[77.5908,16.312],[77.5866,16.3204],[77.5844,16.328],[77.5916,16.3375],[77.5864,16.3379],[77.5718,16.336],[77.5545,16.3416],[77.5495,16.3447],[77.5443,16.3498],[77.5352,16.3529],[77.5286,16.3584],[77.5189,16.3701],[77.5101,16.3702],[77.4945,16.3758],[77.4814,16.3778],[77.4613,16.3754],[77.449,16.3758],[77.4381,16.3744],[77.4352,16.3727],[77.4278,16.3651],[77.4222,16.3628],[77.4117,16.3627],[77.4011,16.366],[77.3881,16.3718],[77.3732,16.3799],[77.3525,16.3766],[77.3429,16.3797],[77.3327,16.3883],[77.307,16.394],[77.2946,16.3996],[77.2847,16.403],[77.2782,16.4107],[77.2748,16.4177],[77.2693,16.4231],[77.2644,16.4301],[77.2582,16.4473],[77.2525,16.4533],[77.2352,16.4681],[77.2389,16.4729],[77.2445,16.4722],[77.2515,16.4679],[77.2854,16.4715],[77.292,16.4736],[77.2958,16.4813],[77.2969,16.4859],[77.2966,16.4915],[77.3091,16.4893],[77.3136,16.4876],[77.3244,16.4809],[77.33,16.4807],[77.3437,16.4821],[77.3436,16.4849],[77.3479,16.4855],[77.3516,16.4833],[77.3582,16.4832],[77.3663,16.4841],[77.3672,16.4869],[77.3673,16.4938],[77.3691,16.5021],[77.3729,16.506],[77.3791,16.5107],[77.3812,16.5115],[77.3887,16.5121],[77.3935,16.5149],[77.4006,16.516],[77.412,16.5138],[77.4153,16.5178],[77.4157,16.544],[77.4016,16.5468],[77.4004,16.5502],[77.3971,16.5529],[77.3965,16.5555],[77.3948,16.5582],[77.3926,16.5595],[77.3903,16.5597],[77.3914,16.5652],[77.3975,16.5634],[77.4021,16.5663],[77.4173,16.5639],[77.421,16.5652],[77.4367,16.5812],[77.4433,16.5821],[77.4564,16.581],[77.4604,16.5835],[77.4642,16.5842],[77.4642,16.5872],[77.4613,16.5907],[77.4588,16.5921],[77.4603,16.5956],[77.4642,16.5951],[77.4647,16.5974],[77.4636,16.6048],[77.4539,16.6074],[77.4538,16.6138],[77.4556,16.62],[77.4613,16.6248],[77.4625,16.6292],[77.4659,16.6359],[77.4713,16.6435],[77.4694,16.6469],[77.4614,16.6488],[77.4548,16.6449],[77.4485,16.6388],[77.4441,16.6358],[77.4384,16.6362],[77.4329,16.6376],[77.4362,16.6425],[77.4325,16.6431],[77.4303,16.6447],[77.4281,16.6501],[77.4212,16.652],[77.4168,16.6548],[77.4166,16.6628],[77.4372,16.6666],[77.4464,16.6742],[77.4617,16.6724],[77.465,16.6783],[77.4675,16.6968],[77.4675,16.7024],[77.4688,16.7087],[77.4668,16.7119],[77.461,16.7132],[77.4563,16.7107],[77.4485,16.7136],[77.4454,16.7138],[77.4374,16.7075],[77.4333,16.7091],[77.43,16.7117],[77.4254,16.7118],[77.4234,16.7145],[77.4241,16.7178],[77.4267,16.7184],[77.4276,16.7211],[77.4263,16.7227],[77.4257,16.7271],[77.4278,16.7295],[77.4313,16.7364],[77.4353,16.7495],[77.4372,16.7631],[77.4353,16.7776],[77.4375,16.7832],[77.4445,16.78],[77.4673,16.7766],[77.4711,16.7791],[77.4716,16.7852],[77.4718,16.7963],[77.4658,16.8008],[77.4627,16.8045],[77.4594,16.8178],[77.4566,16.8237],[77.4604,16.8441],[77.4603,16.8545],[77.4576,16.8793],[77.4522,16.8816],[77.4543,16.8861],[77.4558,16.9047],[77.4539,16.9063],[77.4534,16.909],[77.4601,16.9129],[77.4654,16.9141],[77.4677,16.9171],[77.4679,16.9242],[77.4646,16.9249],[77.4635,16.929],[77.466,16.9346],[77.4643,16.9398],[77.4647,16.9464],[77.4641,16.9527],[77.4692,16.9538],[77.4737,16.9595],[77.4792,16.968],[77.48,16.9752],[77.4784,16.9902],[77.482,16.9972],[77.4832,16.9987],[77.4936,17.0058],[77.4994,17.0073],[77.4982,17.0152],[77.492,17.0217],[77.4932,17.033],[77.4919,17.0388],[77.4868,17.0447],[77.4831,17.0534],[77.4781,17.061],[77.4754,17.0699],[77.4778,17.0723],[77.4769,17.0762],[77.4684,17.0811],[77.4639,17.0867],[77.4603,17.0928],[77.4626,17.1041],[77.4652,17.1088],[77.4697,17.1134],[77.4776,17.116],[77.4817,17.1305],[77.4764,17.1344],[77.4727,17.1394],[77.4767,17.1465],[77.4752,17.1713],[77.4846,17.1734],[77.4949,17.1717],[77.5025,17.1683],[77.5092,17.1704],[77.526,17.1648],[77.5355,17.1628],[77.5412,17.1546],[77.5436,17.1413],[77.548,17.1368],[77.5559,17.1341],[77.5652,17.1297],[77.576,17.1267],[77.5812,17.1358],[77.5851,17.147],[77.5923,17.1466],[77.5941,17.1472],[77.5993,17.1452],[77.6034,17.1454],[77.6084,17.146],[77.6098,17.1488],[77.6136,17.15],[77.619,17.1495],[77.6166,17.1537],[77.6132,17.1636],[77.6403,17.1704],[77.6451,17.1785],[77.6618,17.179],[77.6656,17.1768],[77.667,17.1776],[77.6751,17.176],[77.6806,17.1716],[77.6928,17.1727],[77.6998,17.1704],[77.7006,17.1734],[77.6939,17.1768],[77.6929,17.1808],[77.6961,17.1878],[77.6926,17.1946],[77.6997,17.2],[77.7063,17.197],[77.7111,17.1992],[77.7161,17.1994],[77.7148,17.2048],[77.7236,17.2024],[77.7261,17.1991],[77.7239,17.1892],[77.7242,17.1835],[77.7307,17.1785],[77.7371,17.177],[77.7334,17.1993],[77.7307,17.2057],[77.7308,17.2183],[77.7344,17.2266],[77.7447,17.2237],[77.7507,17.2243],[77.7523,17.2179],[77.7571,17.2181],[77.7581,17.2223],[77.7686,17.2243],[77.7686,17.2276],[77.7725,17.2292],[77.7709,17.2332],[77.7756,17.2308],[77.7887,17.2271],[77.7863,17.2218]]]}},{"type":"Feature","properties":{"district":"Medak","centroid":[78.2845,17.8494],"bbox":[77.4399,17.4151,79.1292,18.2838]},"geometry":{"type":"Polygon","coordinates":[[[77.7049,18.2587],[77.7092,18.2563],[77.7208,18.2583],[77.7256,18.2524],[77.7287,18.241],[77.7271,18.233],[77.7354,18.2335],[77.7369,18.2239],[77.7405,18.2239],[77.742,18.2088],[77.7408,18.2043],[77.7441,18.205],[77.7559,18.2054],[77.7573,18.201],[77.7686,18.1884],[77.7743,18.1906],[77.7748,18.1939],[77.7782,18.1985],[77.7838,18.1969],[77.7923,18.2032],[77.802,18.2021],[77.8079,18.1965],[77.8251,18.194],[77.8276,18.1986],[77.8376,18.2018],[77.8448,18.2001],[77.8508,18.205],[77.8628,18.2008],[77.8605,18.1962],[77.8612,18.1908],[77.8673,18.1888],[77.8785,18.1869],[77.9014,18.1918],[77.8993,18.1809],[77.8995,18.1703],[77.9026,18.1663],[77.8932,18.158],[77.8966,18.1537],[77.9018,18.1522],[77.9006,18.1451],[77.903,18.1431],[77.9077,18.146],[77.9116,18.1418],[77.9138,18.1429],[77.9141,18.1456],[77.9181,18.1442],[77.9228,18.1463],[77.9191,18.1497],[77.9263,18.1546],[77.9338,18.1495],[77.9287,18.1446],[77.9298,18.1398],[77.9284,18.1386],[77.9218,18.1399],[77.9189,18.1344],[77.9222,18.1314],[77.9231,18.1287],[77.9153,18.1226],[77.9102,18.1235],[77.9072,18.1211],[77.9154,18.1129],[77.9271,18.1148],[77.924,18.1029],[77.9191,18.1024],[77.9152,18.1048],[77.9128,18.1007],[77.9075,18.1001],[77.9026,18.1034],[77.9036,18.0964],[77.8983,18.0955],[77.895,18.0927],[77.8935,18.0901],[77.8935,18.0879],[77.9094,18.0958],[77.9247,18.0969],[77.9328,18.1043],[77.9376,18.1101],[77.9492,18.1122],[77.9628,18.1105],[77.9743,18.111],[77.9955,18.1106],[77.9994,18.1112],[78.0054,18.1089],[78.0117,18.0972],[78.0179,18.0942],[78.0366,18.0943],[78.0491,18.0884],[78.0585,18.0855],[78.0709,18.0797],[78.0741,18.0767],[78.0867,18.077],[78.0883,18.0745],[78.0891,18.0744],[78.0896,18.0739],[78.0927,18.0769],[78.0967,18.0892],[78.1041,18.0951],[78.1088,18.0953],[78.1126,18.0766],[78.1187,18.074],[78.1362,18.0737],[78.1418,18.0766],[78.1462,18.0807],[78.1489,18.0845],[78.1529,18.0865],[78.1534,18.0878],[78.1562,18.0913],[78.1605,18.0941],[78.1649,18.0987],[78.1685,18.1039],[78.1723,18.1119],[78.1724,18.1248],[78.1682,18.1498],[78.1664,18.167],[78.1679,18.1762],[78.1715,18.1872],[78.179,18.2017],[78.1888,18.212],[78.1982,18.2166],[78.2077,18.2162],[78.2121,18.2007],[78.2182,18.1854],[78.2132,18.176],[78.2205,18.1728],[78.2268,18.169],[78.2353,18.1616],[78.2436,18.1572],[78.2567,18.1445],[78.2679,18.1414],[78.278,18.1462],[78.2914,18.1624],[78.3039,18.1733],[78.3091,18.1814],[78.3123,18.1901],[78.3175,18.1978],[78.3215,18.1973],[78.3355,18.1862],[78.3548,18.1694],[78.3632,18.1569],[78.3626,18.148],[78.3687,18.1449],[78.3785,18.1271],[78.3834,18.1216],[78.39,18.1283],[78.3985,18.127],[78.4094,18.1296],[78.4192,18.1393],[78.4219,18.1469],[78.4225,18.1551],[78.4362,18.1635],[78.4404,18.153],[78.4428,18.1419],[78.4463,18.135],[78.4507,18.1298],[78.4574,18.1266],[78.4665,18.126],[78.48,18.1282],[78.485,18.1297],[78.4922,18.1364],[78.4834,18.1461],[78.484,18.1544],[78.4899,18.1621],[78.4987,18.1685],[78.506,18.1712],[78.5124,18.1726],[78.5186,18.1778],[78.5297,18.1811],[78.5396,18.1787],[78.5478,18.1791],[78.5555,18.1813],[78.5629,18.1851],[78.5623,18.1987],[78.5639,18.2182],[78.5631,18.2267],[78.5721,18.2216],[78.5789,18.228],[78.5884,18.2436],[78.5969,18.2468],[78.6253,18.2482],[78.645,18.2477],[78.6579,18.2459],[78.6706,18.2416],[78.6811,18.2364],[78.6872,18.2311],[78.6923,18.228],[78.7043,18.2305],[78.7131,18.2309],[78.7217,18.2295],[78.725,18.2154],[78.7398,18.2151],[78.7526,18.2253],[78.7636,18.2472],[78.7672,18.2568],[78.7739,18.2615],[78.7867,18.257],[78.7988,18.2552],[78.8198,18.2549],[78.8269,18.2521],[78.8301,18.25],[78.843,18.2452],[78.8712,18.2412],[78.8918,18.2357],[78.8973,18.2428],[78.903,18.2471],[78.9108,18.2499],[78.9249,18.2527],[78.9363,18.2539],[78.9548,18.2511],[78.959,18.2488],[78.9554,18.2279],[78.9559,18.2193],[78.9594,18.213],[78.9744,18.2087],[78.9856,18.206],[78.9947,18.2032],[79.0033,18.2],[79.0095,18.1934],[79.0139,18.1827],[79.0119,18.1766],[79.0146,18.1702],[79.0152,18.1614],[79.0137,18.1534],[79.0095,18.139],[79.0166,18.1329],[79.025,18.1299],[79.0366,18.1227],[79.0346,18.1054],[79.0305,18.093],[79.0393,18.0882],[79.0589,18.0809],[79.0671,18.0789],[79.0767,18.0786],[79.0995,18.076],[79.1143,18.0782],[79.1205,18.0784],[79.1292,18.0762],[79.1243,18.0708],[79.1176,18.0672],[79.1142,18.0632],[79.1078,18.0531],[79.1061,18.049],[79.1142,18.0359],[79.1146,18.0298],[79.1092,18.0225],[79.0988,18.0241],[79.0949,18.0228],[79.0898,18.0209],[79.0893,18.0214],[79.0795,18.0206],[79.0701,18.0161],[79.0613,18.018],[79.0536,18.0247],[79.0443,18.0294],[79.0379,18.0269],[79.0283,18.021],[78.996,17.997],[78.9937,17.9957],[78.9854,18.0062],[78.9782,18.0109],[78.9812,18.0154],[78.9762,18.019],[78.9659,18.0279],[78.9614,18.0306],[78.9602,18.0269],[78.954,18.0214],[78.948,18.0141],[78.948,18.0071],[78.9501,18.0029],[78.9478,17.9988],[78.9455,17.9948],[78.9442,17.9905],[78.9358,17.9886],[78.9236,17.9895],[78.9139,17.9785],[78.9119,17.9716],[78.9017,17.9556],[78.887,17.9582],[78.8748,17.9594],[78.8671,17.9418],[78.8579,17.9299],[78.8494,17.9165],[78.8457,17.901],[78.8395,17.8984],[78.8371,17.8904],[78.8266,17.8896],[78.8223,17.8751],[78.8242,17.87],[78.8353,17.8668],[78.8661,17.8625],[78.8666,17.8481],[78.8699,17.8246],[78.863,17.8206],[78.8619,17.8138],[78.8634,17.805],[78.8605,17.8008],[78.8599,17.7949],[78.8607,17.7772],[78.8567,17.7677],[78.8553,17.7557],[78.853,17.7477],[78.8462,17.7446],[78.8381,17.7425],[78.8293,17.7412],[78.8209,17.7384],[78.8155,17.7296],[78.8125,17.7229],[78.8089,17.7188],[78.8057,17.7109],[78.8055,17.7025],[78.797,17.7035],[78.7902,17.7079],[78.786,17.7047],[78.7806,17.7043],[78.7788,17.7025],[78.7824,17.6961],[78.7869,17.6908],[78.7735,17.6797],[78.7721,17.6723],[78.7689,17.6718],[78.7589,17.6797],[78.7484,17.6792],[78.7373,17.6766],[78.7306,17.6677],[78.7243,17.6625],[78.714,17.6626],[78.6974,17.6802],[78.6801,17.6816],[78.677,17.6888],[78.6691,17.6912],[78.658,17.6918],[78.651,17.679],[78.6466,17.673],[78.6374,17.6668],[78.6279,17.6635],[78.6194,17.6636],[78.6098,17.665],[78.6079,17.6767],[78.6026,17.6829],[78.5931,17.6969],[78.5765,17.6967],[78.5705,17.6883],[78.566,17.6833],[78.5539,17.683],[78.5451,17.685],[78.5296,17.6929],[78.521,17.6958],[78.5134,17.6933],[78.5077,17.682],[78.4961,17.6801],[78.4903,17.6849],[78.4775,17.687],[78.4669,17.6914],[78.4592,17.6977],[78.4509,17.7031],[78.4453,17.7086],[78.4344,17.6958],[78.4247,17.6973],[78.4228,17.6842],[78.4147,17.6659],[78.3967,17.669],[78.3902,17.6693],[78.3818,17.6615],[78.3787,17.6376],[78.3765,17.6292],[78.3703,17.6247],[78.355,17.6196],[78.3556,17.6142],[78.3647,17.6064],[78.3702,17.5999],[78.3669,17.5871],[78.3666,17.5787],[78.3592,17.5701],[78.359,17.5624],[78.3567,17.5542],[78.3528,17.5511],[78.3435,17.5399],[78.3478,17.531],[78.3492,17.5253],[78.349,17.5197],[78.3385,17.5106],[78.3301,17.5008],[78.3216,17.497],[78.3117,17.4937],[78.3054,17.4882],[78.2916,17.4877],[78.3008,17.4616],[78.2977,17.4517],[78.2897,17.4417],[78.2833,17.4294],[78.2679,17.4314],[78.268,17.4255],[78.2657,17.4189],[78.2576,17.4151],[78.2504,17.4189],[78.2414,17.4224],[78.2315,17.4238],[78.2248,17.436],[78.2133,17.436],[78.2131,17.4469],[78.2138,17.4589],[78.2086,17.4827],[78.1959,17.4854],[78.1833,17.4864],[78.1891,17.476],[78.1747,17.4667],[78.1619,17.4595],[78.1528,17.461],[78.1405,17.469],[78.1426,17.4778],[78.1377,17.4835],[78.1293,17.4844],[78.1137,17.479],[78.1056,17.4792],[78.0985,17.4889],[78.0803,17.4935],[78.0775,17.5047],[78.0769,17.5209],[78.066,17.5177],[78.0616,17.5048],[78.0541,17.5053],[78.0535,17.4988],[78.0603,17.4933],[78.0598,17.4855],[78.0585,17.4794],[78.05,17.4807],[78.0467,17.4723],[78.0555,17.4678],[78.0494,17.4562],[78.0399,17.4571],[78.0311,17.4613],[78.0229,17.4678],[78.0146,17.4719],[78.0077,17.4781],[78.0012,17.485],[77.9952,17.4928],[77.991,17.4967],[77.9869,17.5038],[77.9779,17.4824],[77.9709,17.4802],[77.9605,17.4803],[77.9631,17.4911],[77.9615,17.5013],[77.9701,17.5153],[77.9588,17.5317],[77.9496,17.5335],[77.943,17.5333],[77.9337,17.5356],[77.9351,17.5491],[77.9311,17.5546],[77.9292,17.562],[77.9183,17.5708],[77.9094,17.5721],[77.897,17.5758],[77.8697,17.5778],[77.867,17.5832],[77.8662,17.5895],[77.8689,17.5932],[77.8706,17.5972],[77.8692,17.6008],[77.863,17.6078],[77.8622,17.6169],[77.8568,17.6184],[77.8546,17.625],[77.8514,17.6403],[77.8236,17.6431],[77.8205,17.6328],[77.8117,17.6232],[77.7969,17.6243],[77.7936,17.6219],[77.7833,17.6346],[77.7798,17.6361],[77.7758,17.6254],[77.7733,17.6236],[77.7649,17.6235],[77.7485,17.6203],[77.7434,17.6218],[77.7419,17.6149],[77.7456,17.6151],[77.7457,17.6094],[77.7549,17.6122],[77.7585,17.6099],[77.7638,17.6096],[77.7699,17.599],[77.767,17.5834],[77.7615,17.5817],[77.758,17.5783],[77.7557,17.5707],[77.7571,17.5562],[77.739,17.5468],[77.7031,17.525],[77.6962,17.5262],[77.6863,17.5243],[77.6826,17.5169],[77.6856,17.5056],[77.6833,17.504],[77.682,17.5067],[77.6789,17.5051],[77.6661,17.51],[77.6612,17.5148],[77.6566,17.5213],[77.6499,17.5211],[77.6453,17.5188],[77.6332,17.5231],[77.6212,17.5223],[77.6166,17.5294],[77.608,17.5311],[77.6033,17.5307],[77.5993,17.534],[77.5917,17.5327],[77.5925,17.5491],[77.5919,17.5551],[77.5898,17.5628],[77.5854,17.562],[77.5854,17.5584],[77.5608,17.5535],[77.5561,17.5522],[77.5528,17.55],[77.5484,17.5495],[77.544,17.5546],[77.5367,17.5713],[77.5321,17.5731],[77.5274,17.5732],[77.5139,17.5572],[77.5097,17.5492],[77.5016,17.5409],[77.4968,17.5434],[77.4956,17.5465],[77.4956,17.55],[77.49,17.5663],[77.4741,17.5651],[77.4721,17.5691],[77.4691,17.5682],[77.4652,17.5747],[77.4612,17.577],[77.4399,17.5815],[77.4421,17.5958],[77.4405,17.6041],[77.4413,17.6066],[77.4465,17.6072],[77.4458,17.6123],[77.4488,17.6228],[77.4532,17.6308],[77.4508,17.6324],[77.4475,17.6471],[77.445,17.6484],[77.4456,17.6575],[77.4491,17.6661],[77.451,17.6809],[77.4514,17.6877],[77.4503,17.6913],[77.4546,17.6941],[77.4579,17.699],[77.4716,17.704],[77.4742,17.7014],[77.4787,17.703],[77.4811,17.7069],[77.4845,17.7036],[77.4893,17.7068],[77.4917,17.7129],[77.4943,17.716],[77.5054,17.7145],[77.5095,17.72],[77.5226,17.724],[77.5276,17.7271],[77.534,17.7252],[77.5394,17.7254],[77.5441,17.7334],[77.5519,17.7344],[77.5546,17.7411],[77.562,17.7471],[77.566,17.7641],[77.5545,17.7613],[77.537,17.7705],[77.5345,17.7747],[77.5276,17.7767],[77.523,17.7796],[77.5093,17.7801],[77.5045,17.7826],[77.507,17.793],[77.5109,17.8014],[77.5181,17.8077],[77.5261,17.8117],[77.526,17.8268],[77.5437,17.8263],[77.5448,17.817],[77.5497,17.818],[77.5543,17.8305],[77.5592,17.8386],[77.5635,17.842],[77.5622,17.8491],[77.566,17.8496],[77.5674,17.8661],[77.5727,17.8728],[77.5777,17.8712],[77.5813,17.8757],[77.5928,17.8698],[77.5967,17.8705],[77.5978,17.8771],[77.5925,17.8795],[77.5852,17.8925],[77.5831,17.8984],[77.5852,17.9082],[77.5998,17.9037],[77.6044,17.9055],[77.6166,17.9029],[77.6189,17.9135],[77.6187,17.9218],[77.6195,17.9301],[77.6168,17.9381],[77.62,17.9445],[77.6243,17.9437],[77.6289,17.9485],[77.629,17.9538],[77.6237,17.9578],[77.6297,17.963],[77.6318,17.9535],[77.6356,17.9505],[77.6406,17.9496],[77.644,17.9464],[77.6474,17.9532],[77.6428,17.9573],[77.6443,17.9627],[77.652,17.9643],[77.6534,17.9694],[77.6474,17.9704],[77.6436,17.9734],[77.6489,17.9784],[77.6498,17.9859],[77.6478,17.9873],[77.6462,17.9932],[77.6423,17.9959],[77.6382,17.9965],[77.6327,17.9951],[77.6288,17.9925],[77.6215,17.9983],[77.6239,18.0012],[77.6223,18.0047],[77.6159,18.0061],[77.6101,18.0105],[77.6067,18.018],[77.5995,18.0157],[77.5922,18.0102],[77.5872,18.0133],[77.585,18.0248],[77.5745,18.0307],[77.5578,18.0352],[77.5531,18.0347],[77.5521,18.0469],[77.5481,18.048],[77.5457,18.0538],[77.5474,18.0636],[77.5567,18.0622],[77.5605,18.0711],[77.5673,18.0763],[77.5774,18.0769],[77.5898,18.0803],[77.5975,18.0843],[77.6006,18.0994],[77.5966,18.121],[77.5935,18.1279],[77.5978,18.1518],[77.5892,18.1535],[77.5794,18.1621],[77.5775,18.1683],[77.5725,18.1789],[77.57,18.1892],[77.5643,18.19],[77.5643,18.2006],[77.5744,18.1999],[77.585,18.2167],[77.5811,18.2227],[77.5768,18.2331],[77.5725,18.2406],[77.5815,18.2563],[77.5919,18.2618],[77.599,18.2729],[77.6168,18.2736],[77.6252,18.2829],[77.6435,18.2838],[77.6644,18.2813],[77.686,18.2651],[77.6864,18.26],[77.7049,18.2587]]]}},{"type":"Feature","properties":{"district":"Nalgonda","centroid":[79.3385,17.0839],"bbox":[78.6074,16.3628,80.0697,17.805]},"geometry":{"type":"Polygon","coordinates":[[[78.8819,17.8],[78.8933,17.7984],[78.9024,17.7995],[78.9063,17.7975],[78.9259,17.7937],[78.9287,17.7874],[78.9415,17.7851],[78.9703,17.7828],[78.9823,17.7842],[78.987,17.7771],[78.9937,17.7549],[79.0048,17.7281],[79.0087,17.7152],[79.0182,17.7046],[79.0332,17.7134],[79.0455,17.718],[79.054,17.7131],[79.0682,17.7076],[79.0739,17.697],[79.0784,17.6846],[79.09,17.674],[79.0992,17.669],[79.1083,17.6653],[79.1175,17.6629],[79.1199,17.647],[79.1318,17.6244],[79.1424,17.6195],[79.1454,17.6153],[79.1412,17.603],[79.1414,17.588],[79.1463,17.5799],[79.1549,17.5737],[79.1571,17.5746],[79.1665,17.5784],[79.169,17.5883],[79.1721,17.5951],[79.1785,17.5974],[79.1866,17.6106],[79.2004,17.6197],[79.2095,17.6026],[79.2033,17.5973],[79.2048,17.5864],[79.2113,17.5802],[79.2162,17.5727],[79.2197,17.5588],[79.229,17.5598],[79.2448,17.5551],[79.2504,17.5565],[79.2535,17.5648],[79.258,17.5723],[79.2616,17.5756],[79.2682,17.5736],[79.2731,17.5671],[79.2775,17.5565],[79.2816,17.5523],[79.2863,17.5506],[79.2938,17.5498],[79.3008,17.5506],[79.306,17.5448],[79.3092,17.5377],[79.3114,17.5241],[79.3187,17.5204],[79.3517,17.5129],[79.3655,17.5051],[79.3766,17.4993],[79.39,17.4949],[79.3963,17.4947],[79.4146,17.5103],[79.4229,17.5113],[79.4362,17.5088],[79.4495,17.5106],[79.4611,17.5103],[79.4722,17.5074],[79.4786,17.504],[79.4849,17.4954],[79.4986,17.4907],[79.5114,17.4896],[79.5163,17.5071],[79.5231,17.5137],[79.5312,17.5183],[79.5484,17.5009],[79.5521,17.4962],[79.563,17.4972],[79.5791,17.4914],[79.5869,17.4957],[79.6045,17.4902],[79.6218,17.4859],[79.6325,17.4896],[79.642,17.4966],[79.6471,17.4987],[79.6483,17.4939],[79.6487,17.484],[79.647,17.4658],[79.6609,17.457],[79.6761,17.4506],[79.689,17.4498],[79.6964,17.447],[79.7026,17.4397],[79.7079,17.4319],[79.7138,17.4269],[79.7207,17.425],[79.7455,17.426],[79.7509,17.4248],[79.7519,17.409],[79.7552,17.402],[79.7709,17.3899],[79.7794,17.3815],[79.7655,17.3753],[79.7607,17.3724],[79.7597,17.369],[79.7628,17.3617],[79.7755,17.3465],[79.7789,17.3376],[79.7835,17.3154],[79.7851,17.3135],[79.7891,17.306],[79.8072,17.2805],[79.8121,17.2744],[79.8182,17.2699],[79.8313,17.2684],[79.8435,17.2653],[79.872,17.2614],[79.8829,17.2564],[79.8896,17.2465],[79.8905,17.2407],[79.8888,17.2295],[79.8916,17.2119],[79.8768,17.2069],[79.8724,17.2026],[79.87,17.1947],[79.8676,17.18],[79.8699,17.1719],[79.8754,17.1664],[79.8837,17.1598],[79.9011,17.151],[79.906,17.1465],[79.9071,17.1409],[79.9059,17.1343],[79.9056,17.1288],[79.9126,17.1261],[79.9193,17.1254],[79.933,17.1261],[79.9392,17.1233],[79.9453,17.1185],[79.9615,17.1012],[79.9712,17.0935],[79.9802,17.0814],[79.9918,17.0624],[80.0016,17.0558],[80.0128,17.0498],[80.0288,17.0357],[80.04,17.023],[80.0495,17.0193],[80.054,17.0101],[80.0474,17.0009],[80.0433,16.993],[80.0441,16.9802],[80.0459,16.9653],[80.0371,16.9365],[80.0285,16.9274],[80.0186,16.9188],[80.0096,16.9073],[80.0028,16.8915],[79.9951,16.8773],[79.9917,16.8633],[79.9941,16.8622],[80.0138,16.8529],[80.0331,16.8524],[80.0344,16.8478],[80.0344,16.8391],[80.0367,16.8324],[80.0418,16.8261],[80.0697,16.8136],[80.0649,16.8025],[80.0577,16.7819],[80.0516,16.7713],[80.0479,16.7452],[80.0434,16.7397],[80.0328,16.7318],[80.0233,16.7185],[80.0167,16.7118],[80.0024,16.7029],[79.9937,16.6944],[79.9915,16.6926],[79.973,16.6595],[79.9582,16.642],[79.9426,16.6326],[79.9237,16.6307],[79.9138,16.6331],[79.9021,16.6378],[79.8909,16.6496],[79.8807,16.6762],[79.8733,16.6887],[79.8618,16.6982],[79.8446,16.6965],[79.8259,16.6915],[79.8103,16.6905],[79.7834,16.7248],[79.7749,16.7295],[79.7631,16.7271],[79.7505,16.7201],[79.7338,16.698],[79.7227,16.6926],[79.683,16.6904],[79.6686,16.684],[79.6555,16.6741],[79.648,16.662],[79.6333,16.6609],[79.6168,16.6646],[79.5999,16.6633],[79.5856,16.6514],[79.574,16.6436],[79.5636,16.6381],[79.554,16.6346],[79.5367,16.6316],[79.5121,16.6337],[79.4972,16.6305],[79.4701,16.6187],[79.4506,16.6091],[79.4432,16.5937],[79.4345,16.5857],[79.4266,16.5825],[79.4027,16.5804],[79.3455,16.5796],[79.3333,16.5785],[79.3198,16.5759],[79.2951,16.5674],[79.2824,16.5654],[79.2661,16.5615],[79.2608,16.5464],[79.2304,16.5193],[79.2253,16.5082],[79.2241,16.4921],[79.2309,16.4817],[79.2351,16.4707],[79.2362,16.4585],[79.2264,16.4525],[79.2191,16.4382],[79.215,16.4158],[79.2126,16.3938],[79.2133,16.3744],[79.2115,16.3628],[79.1834,16.375],[79.146,16.3985],[79.1104,16.4163],[79.0912,16.4328],[79.0615,16.4539],[79.0098,16.4834],[78.9927,16.4888],[78.9737,16.4876],[78.9553,16.4944],[78.9249,16.5112],[78.921,16.5176],[78.9176,16.5301],[78.9057,16.5442],[78.8996,16.5442],[78.8809,16.5415],[78.8665,16.5367],[78.8633,16.538],[78.8549,16.5434],[78.8491,16.5444],[78.8377,16.5413],[78.8287,16.536],[78.8183,16.5267],[78.7978,16.5117],[78.7875,16.5103],[78.7717,16.5196],[78.7656,16.525],[78.7593,16.5281],[78.7516,16.5299],[78.7424,16.5298],[78.7111,16.5318],[78.6867,16.5292],[78.6756,16.532],[78.6722,16.5275],[78.6667,16.5222],[78.658,16.5206],[78.6528,16.5214],[78.641,16.5282],[78.6298,16.5187],[78.6246,16.52],[78.611,16.5133],[78.6074,16.5174],[78.6115,16.5232],[78.6166,16.5248],[78.6212,16.5276],[78.6285,16.5292],[78.6301,16.5318],[78.6328,16.5445],[78.6499,16.5414],[78.6596,16.5361],[78.6621,16.5487],[78.6643,16.558],[78.6667,16.5635],[78.6716,16.5579],[78.6729,16.5499],[78.6784,16.5477],[78.6882,16.5554],[78.6954,16.5574],[78.7028,16.5643],[78.7113,16.5755],[78.704,16.5907],[78.6889,16.6139],[78.6782,16.6177],[78.6709,16.633],[78.6673,16.6428],[78.6731,16.6436],[78.6829,16.6425],[78.6946,16.6432],[78.7106,16.6429],[78.7052,16.6637],[78.7119,16.6752],[78.7204,16.6816],[78.7338,16.6942],[78.7413,16.6983],[78.7507,16.701],[78.7564,16.7216],[78.7519,16.7322],[78.756,16.7391],[78.7704,16.7392],[78.7754,16.7411],[78.7819,16.7473],[78.7861,16.7549],[78.7904,16.7737],[78.7904,16.7863],[78.7886,16.7998],[78.7957,16.8085],[78.7976,16.8174],[78.7868,16.8206],[78.7777,16.8325],[78.7714,16.8384],[78.7776,16.8527],[78.7778,16.8626],[78.7713,16.8751],[78.7637,16.8692],[78.7544,16.8607],[78.7446,16.8489],[78.7295,16.8549],[78.7214,16.8659],[78.7244,16.8763],[78.7351,16.8948],[78.7437,16.9045],[78.7266,16.9148],[78.7116,16.9215],[78.6951,16.9278],[78.692,16.9342],[78.6955,16.94],[78.7004,16.9573],[78.7113,16.9632],[78.7236,16.9639],[78.7356,16.9633],[78.7482,16.9609],[78.7485,16.9648],[78.7526,16.9725],[78.7698,16.972],[78.7832,16.9681],[78.7879,16.975],[78.7909,16.9852],[78.8006,16.9942],[78.812,17.0017],[78.824,17.0126],[78.8222,17.0196],[78.8134,17.027],[78.7964,17.0323],[78.7819,17.0334],[78.7863,17.0382],[78.7926,17.0432],[78.8206,17.0349],[78.8318,17.0374],[78.8394,17.0465],[78.8387,17.0579],[78.8395,17.0639],[78.849,17.074],[78.8436,17.0819],[78.8348,17.0893],[78.818,17.101],[78.8194,17.1087],[78.835,17.1054],[78.8369,17.1127],[78.8327,17.1199],[78.8258,17.1219],[78.8115,17.1246],[78.8018,17.1284],[78.789,17.1359],[78.7795,17.1466],[78.7772,17.1562],[78.7881,17.1679],[78.784,17.1774],[78.7847,17.1884],[78.7748,17.1914],[78.7729,17.201],[78.7687,17.2076],[78.7629,17.2143],[78.7775,17.2102],[78.8074,17.2041],[78.8205,17.2315],[78.8112,17.2394],[78.8,17.244],[78.7647,17.2537],[78.7565,17.2596],[78.7492,17.2672],[78.7549,17.2748],[78.7504,17.2822],[78.741,17.2921],[78.7474,17.2974],[78.7613,17.3046],[78.7632,17.3065],[78.7602,17.3103],[78.7505,17.3139],[78.7406,17.3211],[78.7472,17.3265],[78.7587,17.3323],[78.764,17.336],[78.7637,17.3439],[78.7453,17.3541],[78.7343,17.3548],[78.7368,17.3657],[78.7374,17.3735],[78.7413,17.3811],[78.7415,17.3879],[78.7397,17.3935],[78.7471,17.4021],[78.7517,17.4112],[78.7559,17.4232],[78.7541,17.4396],[78.7484,17.443],[78.7411,17.4372],[78.7313,17.4355],[78.7181,17.4384],[78.7071,17.4347],[78.7084,17.4588],[78.7128,17.4637],[78.7205,17.4676],[78.7206,17.473],[78.7147,17.4764],[78.7051,17.4843],[78.7074,17.5145],[78.7072,17.5201],[78.7003,17.5298],[78.698,17.5403],[78.6929,17.5556],[78.6817,17.5738],[78.6852,17.5795],[78.6907,17.5847],[78.685,17.5895],[78.6841,17.5925],[78.6893,17.5977],[78.6942,17.5996],[78.6921,17.6094],[78.6962,17.6217],[78.704,17.6311],[78.708,17.6475],[78.714,17.6626],[78.7243,17.6625],[78.7306,17.6677],[78.7373,17.6766],[78.7484,17.6792],[78.7589,17.6797],[78.7689,17.6718],[78.7721,17.6723],[78.7735,17.6797],[78.7869,17.6908],[78.7824,17.6961],[78.7788,17.7025],[78.7806,17.7043],[78.786,17.7047],[78.7902,17.7079],[78.797,17.7035],[78.8055,17.7025],[78.8057,17.7109],[78.8089,17.7188],[78.8125,17.7229],[78.8155,17.7296],[78.8209,17.7384],[78.8293,17.7412],[78.8381,17.7425],[78.8462,17.7446],[78.853,17.7477],[78.8553,17.7557],[78.8567,17.7677],[78.8607,17.7772],[78.8599,17.7949],[78.8605,17.8008],[78.8634,17.805],[78.8819,17.8]]]}},{"type":"Feature","properties":{"district":"Nizamabad","centroid":[78.0966,18.5382],"bbox":[77.5195,18.0737,78.6737,19.0026]},"geometry":{"type":"Polygon","coordinates":[[[78.2768,18.9435],[78.2847,18.9408],[78.299,18.9445],[78.3137,18.9509],[78.3259,18.9575],[78.3541,18.9786],[78.3647,18.9849],[78.3779,18.9883],[78.3886,18.9901],[78.4004,18.9879],[78.4115,18.9797],[78.4294,18.9634],[78.4383,18.9586],[78.4467,18.9572],[78.4605,18.9573],[78.4938,18.9637],[78.5055,18.9585],[78.519,18.9459],[78.5259,18.9429],[78.5286,18.9416],[78.5223,18.928],[78.5173,18.9133],[78.5182,18.9073],[78.5303,18.8956],[78.5352,18.8894],[78.5407,18.874],[78.5426,18.8558],[78.5447,18.8442],[78.5451,18.8311],[78.5462,18.8221],[78.5488,18.8187],[78.5511,18.8137],[78.5544,18.795],[78.5629,18.7831],[78.556,18.77],[78.5557,18.7614],[78.5698,18.7431],[78.5796,18.7359],[78.5884,18.7332],[78.5988,18.7322],[78.6083,18.7341],[78.6201,18.7344],[78.6316,18.7303],[78.6368,18.7254],[78.6375,18.7173],[78.6397,18.7089],[78.637,18.6937],[78.6376,18.6885],[78.6415,18.6773],[78.6468,18.6573],[78.6541,18.6407],[78.6597,18.6329],[78.6626,18.6311],[78.6701,18.6266],[78.6737,18.6227],[78.6697,18.6161],[78.653,18.5973],[78.6401,18.5902],[78.615,18.5845],[78.6064,18.5813],[78.5986,18.5756],[78.5949,18.5689],[78.5891,18.5444],[78.5832,18.5419],[78.5748,18.5443],[78.5678,18.5448],[78.5586,18.5399],[78.5534,18.534],[78.5437,18.5145],[78.5317,18.4945],[78.5211,18.4747],[78.5192,18.4676],[78.5277,18.4603],[78.5372,18.4556],[78.5458,18.4435],[78.5485,18.435],[78.5474,18.4282],[78.5424,18.4224],[78.5396,18.4167],[78.5417,18.4086],[78.5461,18.404],[78.5578,18.3947],[78.5608,18.388],[78.5543,18.3875],[78.5443,18.3884],[78.5323,18.388],[78.5287,18.3829],[78.5318,18.3651],[78.5395,18.3492],[78.5439,18.3424],[78.5457,18.3355],[78.5374,18.3144],[78.5367,18.2998],[78.5315,18.2954],[78.5219,18.2891],[78.5172,18.2821],[78.5439,18.266],[78.5512,18.258],[78.5547,18.2513],[78.5585,18.2385],[78.5631,18.2267],[78.5639,18.2182],[78.5623,18.1987],[78.5629,18.1851],[78.5555,18.1813],[78.5478,18.1791],[78.5396,18.1787],[78.5297,18.1811],[78.5186,18.1778],[78.5124,18.1726],[78.506,18.1712],[78.4987,18.1685],[78.4899,18.1621],[78.484,18.1544],[78.4834,18.1461],[78.4922,18.1364],[78.485,18.1297],[78.48,18.1282],[78.4665,18.126],[78.4574,18.1266],[78.4507,18.1298],[78.4463,18.135],[78.4428,18.1419],[78.4404,18.153],[78.4362,18.1635],[78.4225,18.1551],[78.4219,18.1469],[78.4192,18.1393],[78.4094,18.1296],[78.3985,18.127],[78.39,18.1283],[78.3834,18.1216],[78.3785,18.1271],[78.3687,18.1449],[78.3626,18.148],[78.3632,18.1569],[78.3548,18.1694],[78.3355,18.1862],[78.3215,18.1973],[78.3175,18.1978],[78.3123,18.1901],[78.3091,18.1814],[78.3039,18.1733],[78.2914,18.1624],[78.278,18.1462],[78.2679,18.1414],[78.2567,18.1445],[78.2436,18.1572],[78.2353,18.1616],[78.2268,18.169],[78.2205,18.1728],[78.2132,18.176],[78.2182,18.1854],[78.2121,18.2007],[78.2077,18.2162],[78.1982,18.2166],[78.1888,18.212],[78.179,18.2017],[78.1715,18.1872],[78.1679,18.1762],[78.1664,18.167],[78.1682,18.1498],[78.1724,18.1248],[78.1723,18.1119],[78.1685,18.1039],[78.1649,18.0987],[78.1605,18.0941],[78.1562,18.0913],[78.1534,18.0878],[78.1529,18.0865],[78.1489,18.0845],[78.1462,18.0807],[78.1418,18.0766],[78.1362,18.0737],[78.1187,18.074],[78.1126,18.0766],[78.1088,18.0953],[78.1041,18.0951],[78.0967,18.0892],[78.0927,18.0769],[78.0896,18.0739],[78.0891,18.0744],[78.0883,18.0745],[78.0867,18.077],[78.0741,18.0767],[78.0709,18.0797],[78.0585,18.0855],[78.0491,18.0884],[78.0366,18.0943],[78.0179,18.0942],[78.0117,18.0972],[78.0054,18.1089],[77.9994,18.1112],[77.9955,18.1106],[77.9743,18.111],[77.9628,18.1105],[77.9492,18.1122],[77.9376,18.1101],[77.9328,18.1043],[77.9247,18.0969],[77.9094,18.0958],[77.8935,18.0879],[77.8935,18.0901],[77.895,18.0927],[77.8983,18.0955],[77.9036,18.0964],[77.9026,18.1034],[77.9075,18.1001],[77.9128,18.1007],[77.9152,18.1048],[77.9191,18.1024],[77.924,18.1029],[77.9271,18.1148],[77.9154,18.1129],[77.9072,18.1211],[77.9102,18.1235],[77.9153,18.1226],[77.9231,18.1287],[77.9222,18.1314],[77.9189,18.1344],[77.9218,18.1399],[77.9284,18.1386],[77.9298,18.1398],[77.9287,18.1446],[77.9338,18.1495],[77.9263,18.1546],[77.9191,18.1497],[77.9228,18.1463],[77.9181,18.1442],[77.9141,18.1456],[77.9138,18.1429],[77.9116,18.1418],[77.9077,18.146],[77.903,18.1431],[77.9006,18.1451],[77.9018,18.1522],[77.8966,18.1537],[77.8932,18.158],[77.9026,18.1663],[77.8995,18.1703],[77.8993,18.1809],[77.9014,18.1918],[77.8785,18.1869],[77.8673,18.1888],[77.8612,18.1908],[77.8605,18.1962],[77.8628,18.2008],[77.8508,18.205],[77.8448,18.2001],[77.8376,18.2018],[77.8276,18.1986],[77.8251,18.194],[77.8079,18.1965],[77.802,18.2021],[77.7923,18.2032],[77.7838,18.1969],[77.7782,18.1985],[77.7748,18.1939],[77.7743,18.1906],[77.7686,18.1884],[77.7573,18.201],[77.7559,18.2054],[77.7441,18.205],[77.7408,18.2043],[77.742,18.2088],[77.7405,18.2239],[77.7369,18.2239],[77.7354,18.2335],[77.7271,18.233],[77.7287,18.241],[77.7256,18.2524],[77.7208,18.2583],[77.7092,18.2563],[77.7049,18.2587],[77.6864,18.26],[77.686,18.2651],[77.6644,18.2813],[77.6435,18.2838],[77.6252,18.2829],[77.6168,18.2736],[77.599,18.2729],[77.603,18.278],[77.5978,18.2812],[77.5838,18.2831],[77.5743,18.2868],[77.5746,18.2893],[77.5707,18.2905],[77.561,18.2831],[77.55,18.2913],[77.555,18.2983],[77.5702,18.3082],[77.5669,18.3179],[77.5534,18.3312],[77.5422,18.3339],[77.5273,18.3394],[77.5195,18.3493],[77.5214,18.3647],[77.5305,18.3758],[77.5416,18.3852],[77.5493,18.3877],[77.5552,18.4179],[77.5441,18.4204],[77.5352,18.4212],[77.536,18.4235],[77.5259,18.4274],[77.5285,18.4405],[77.5345,18.4424],[77.5464,18.4406],[77.5602,18.435],[77.5669,18.4386],[77.5741,18.4393],[77.5826,18.4431],[77.5852,18.4454],[77.5833,18.4472],[77.5836,18.4536],[77.5591,18.458],[77.5498,18.458],[77.5489,18.4608],[77.5462,18.4634],[77.5465,18.4657],[77.5581,18.4653],[77.5604,18.4675],[77.5706,18.4669],[77.5765,18.4838],[77.5908,18.4811],[77.5931,18.4735],[77.6011,18.4742],[77.6038,18.4853],[77.6028,18.4914],[77.5939,18.4939],[77.5863,18.5029],[77.5871,18.5098],[77.5965,18.515],[77.6014,18.5219],[77.6004,18.525],[77.5933,18.5231],[77.5933,18.528],[77.5982,18.535],[77.5973,18.5475],[77.6109,18.5478],[77.6133,18.5424],[77.6158,18.5429],[77.6163,18.5487],[77.6291,18.5506],[77.6344,18.5452],[77.6405,18.5539],[77.6488,18.5526],[77.6496,18.5497],[77.6522,18.5496],[77.6495,18.5413],[77.6453,18.5363],[77.6576,18.5272],[77.6621,18.5333],[77.6759,18.5413],[77.6827,18.5408],[77.7124,18.5544],[77.7279,18.5515],[77.7365,18.5548],[77.7354,18.5632],[77.7472,18.5891],[77.7481,18.6053],[77.743,18.6214],[77.736,18.6309],[77.7297,18.6427],[77.7298,18.6456],[77.7301,18.6481],[77.7309,18.6553],[77.7332,18.6557],[77.7332,18.6621],[77.7281,18.6642],[77.7329,18.676],[77.7447,18.6839],[77.7495,18.6898],[77.7499,18.6978],[77.7576,18.7071],[77.7644,18.7079],[77.7688,18.7016],[77.7694,18.6906],[77.7864,18.6841],[77.7865,18.6943],[77.8022,18.7161],[77.8027,18.7292],[77.8104,18.7402],[77.8232,18.7685],[77.8276,18.786],[77.8375,18.8075],[77.8592,18.8141],[77.9076,18.8295],[77.9287,18.8217],[77.9426,18.8223],[77.9452,18.8321],[77.9441,18.8423],[77.9526,18.8535],[77.9601,18.8686],[77.9684,18.8753],[77.9958,18.8816],[78.0182,18.8753],[78.0248,18.8764],[78.0293,18.8799],[78.0338,18.8939],[78.0389,18.9048],[78.0472,18.9181],[78.048,18.919],[78.0607,18.9297],[78.0661,18.9332],[78.0691,18.9354],[78.0819,18.9383],[78.0893,18.942],[78.0974,18.9444],[78.1174,18.9524],[78.1296,18.9585],[78.1573,18.9802],[78.1743,18.9877],[78.1894,18.9923],[78.202,18.9984],[78.2178,19.0014],[78.2329,19.0026],[78.245,18.9985],[78.2481,18.9975],[78.2604,18.9903],[78.2681,18.9817],[78.2733,18.9687],[78.2727,18.9571],[78.2768,18.9435]]]}},{"type":"Feature","properties":{"district":"Warangal","centroid":[79.7404,17.9591],"bbox":[78.8223,17.3135,80.6585,18.6047]},"geometry":{"type":"Polygon","coordinates":[[[80.3816,18.5936],[80.3908,18.578],[80.3949,18.5669],[80.3945,18.5623],[80.3927,18.5574],[80.3894,18.5519],[80.3735,18.5383],[80.3704,18.5328],[80.3692,18.5286],[80.3688,18.5229],[80.3708,18.5192],[80.374,18.5168],[80.3744,18.5078],[80.3763,18.5006],[80.3717,18.4959],[80.3728,18.4916],[80.3716,18.4792],[80.3736,18.4686],[80.3767,18.4637],[80.3814,18.4594],[80.3883,18.456],[80.3969,18.4533],[80.4039,18.4533],[80.4083,18.4552],[80.4149,18.4551],[80.422,18.4536],[80.4283,18.4554],[80.4335,18.4553],[80.4464,18.452],[80.455,18.4461],[80.4577,18.4422],[80.459,18.4325],[80.458,18.4273],[80.4553,18.4217],[80.4534,18.4153],[80.4503,18.3994],[80.4508,18.3954],[80.4542,18.3918],[80.4652,18.3842],[80.4679,18.3802],[80.4675,18.3716],[80.4621,18.3587],[80.4598,18.3498],[80.4647,18.3355],[80.465,18.3302],[80.4622,18.3187],[80.4667,18.3014],[80.47,18.2952],[80.4746,18.2896],[80.4846,18.2799],[80.4886,18.2746],[80.4912,18.2675],[80.4968,18.2608],[80.5028,18.2586],[80.5124,18.2601],[80.5195,18.2594],[80.5304,18.2556],[80.5352,18.2511],[80.5505,18.2408],[80.5554,18.2389],[80.5663,18.233],[80.5762,18.2266],[80.5816,18.2221],[80.5945,18.2153],[80.605,18.2072],[80.61,18.1993],[80.6148,18.1983],[80.621,18.1986],[80.6233,18.1948],[80.6243,18.1905],[80.6263,18.1877],[80.6261,18.186],[80.6398,18.1803],[80.6517,18.1701],[80.655,18.169],[80.6585,18.1651],[80.6544,18.1575],[80.6532,18.1497],[80.6503,18.1483],[80.6473,18.1499],[80.6438,18.1504],[80.6435,18.15],[80.6426,18.1487],[80.6486,18.1415],[80.6491,18.1402],[80.6505,18.1372],[80.6486,18.1281],[80.6411,18.1287],[80.624,18.134],[80.6219,18.1311],[80.6205,18.1291],[80.6188,18.1246],[80.619,18.1212],[80.6366,18.1192],[80.637,18.1153],[80.6313,18.1048],[80.6289,18.1028],[80.6227,18.1035],[80.6124,18.1074],[80.6121,18.1073],[80.6102,18.1066],[80.6084,18.0978],[80.6048,18.093],[80.604,18.0908],[80.6019,18.0844],[80.5946,18.0772],[80.5904,18.0764],[80.586,18.0786],[80.5807,18.0813],[80.563,18.0942],[80.5578,18.0968],[80.5486,18.0982],[80.5457,18.098],[80.5392,18.091],[80.5366,18.0904],[80.5298,18.0932],[80.5235,18.0982],[80.5155,18.1079],[80.5117,18.1096],[80.5099,18.1147],[80.4983,18.1235],[80.4925,18.1334],[80.4824,18.1366],[80.4604,18.1289],[80.4718,18.1201],[80.4723,18.1162],[80.4699,18.1119],[80.4663,18.1053],[80.4601,18.0905],[80.4559,18.0803],[80.4551,18.0791],[80.4541,18.0773],[80.4493,18.0731],[80.4489,18.0612],[80.4522,18.0542],[80.4435,18.0585],[80.4402,18.0593],[80.4312,18.0542],[80.4278,18.0532],[80.4125,18.0616],[80.4045,18.068],[80.3973,18.0725],[80.3875,18.0762],[80.3677,18.0585],[80.349,18.0382],[80.3445,18.0349],[80.3412,18.0308],[80.3386,18.0228],[80.3376,18.0114],[80.3239,17.9999],[80.3205,17.9952],[80.3059,17.9713],[80.3021,17.9676],[80.301,17.967],[80.2918,17.9618],[80.2866,17.9609],[80.2697,17.9623],[80.2703,17.9547],[80.2691,17.9431],[80.2652,17.9277],[80.2676,17.9147],[80.2759,17.9032],[80.2721,17.8904],[80.2722,17.8763],[80.2698,17.8652],[80.2651,17.8542],[80.2461,17.8218],[80.2505,17.7769],[80.2545,17.7625],[80.252,17.7433],[80.2485,17.7372],[80.244,17.7361],[80.2439,17.7332],[80.2378,17.7303],[80.2346,17.7357],[80.231,17.7459],[80.2178,17.7401],[80.2061,17.7333],[80.1653,17.7059],[80.1645,17.7104],[80.1697,17.7184],[80.1661,17.7194],[80.1629,17.7216],[80.1607,17.7333],[80.158,17.739],[80.1564,17.747],[80.1468,17.7426],[80.1359,17.7396],[80.1286,17.7282],[80.118,17.7233],[80.0839,17.7117],[80.0686,17.7053],[80.0575,17.7035],[80.0522,17.7065],[80.0439,17.7091],[80.0387,17.7009],[80.0368,17.6912],[80.0677,17.6757],[80.0772,17.6673],[80.0823,17.6534],[80.0807,17.6503],[80.0681,17.6459],[80.0658,17.6416],[80.0662,17.6364],[80.0567,17.6194],[80.0493,17.6019],[80.0464,17.5899],[80.0519,17.5865],[80.0548,17.5825],[80.0609,17.5823],[80.0692,17.5777],[80.0794,17.5694],[80.0771,17.56],[80.0722,17.5494],[80.0791,17.5421],[80.077,17.5308],[80.0763,17.5215],[80.0822,17.5074],[80.0923,17.4903],[80.099,17.4843],[80.1105,17.4804],[80.1201,17.4757],[80.1222,17.465],[80.1205,17.4567],[80.1208,17.4401],[80.1614,17.4484],[80.1618,17.4362],[80.1603,17.4266],[80.1539,17.401],[80.1527,17.3876],[80.1541,17.3801],[80.1541,17.3718],[80.1511,17.3726],[80.1471,17.3799],[80.1353,17.3866],[80.1285,17.3855],[80.1231,17.3836],[80.1196,17.3781],[80.1128,17.3748],[80.1096,17.3685],[80.1058,17.3648],[80.1034,17.3575],[80.0951,17.3531],[80.0872,17.3543],[80.081,17.3582],[80.0727,17.3609],[80.068,17.3538],[80.061,17.3496],[80.0562,17.345],[80.0465,17.3406],[80.0405,17.346],[80.0315,17.3468],[79.9921,17.3565],[79.9821,17.3675],[79.9822,17.3844],[79.9788,17.3943],[79.9619,17.3983],[79.9481,17.3907],[79.9412,17.3886],[79.9324,17.3882],[79.9278,17.3847],[79.9308,17.3728],[79.9237,17.3688],[79.915,17.3684],[79.8984,17.37],[79.8886,17.3656],[79.884,17.3485],[79.8758,17.3532],[79.8717,17.353],[79.8716,17.3436],[79.8705,17.3358],[79.8644,17.3271],[79.8571,17.3274],[79.8445,17.3294],[79.833,17.3225],[79.8245,17.3276],[79.8116,17.3304],[79.8038,17.3275],[79.7948,17.3218],[79.7851,17.3135],[79.7835,17.3154],[79.7789,17.3376],[79.7755,17.3465],[79.7628,17.3617],[79.7597,17.369],[79.7607,17.3724],[79.7655,17.3753],[79.7794,17.3815],[79.7709,17.3899],[79.7552,17.402],[79.7519,17.409],[79.7509,17.4248],[79.7455,17.426],[79.7207,17.425],[79.7138,17.4269],[79.7079,17.4319],[79.7026,17.4397],[79.6964,17.447],[79.689,17.4498],[79.6761,17.4506],[79.6609,17.457],[79.647,17.4658],[79.6487,17.484],[79.6483,17.4939],[79.6471,17.4987],[79.642,17.4966],[79.6325,17.4896],[79.6218,17.4859],[79.6045,17.4902],[79.5869,17.4957],[79.5791,17.4914],[79.563,17.4972],[79.5521,17.4962],[79.5484,17.5009],[79.5312,17.5183],[79.5231,17.5137],[79.5163,17.5071],[79.5114,17.4896],[79.4986,17.4907],[79.4849,17.4954],[79.4786,17.504],[79.4722,17.5074],[79.4611,17.5103],[79.4495,17.5106],[79.4362,17.5088],[79.4229,17.5113],[79.4146,17.5103],[79.3963,17.4947],[79.39,17.4949],[79.3766,17.4993],[79.3655,17.5051],[79.3517,17.5129],[79.3187,17.5204],[79.3114,17.5241],[79.3092,17.5377],[79.306,17.5448],[79.3008,17.5506],[79.2938,17.5498],[79.2863,17.5506],[79.2816,17.5523],[79.2775,17.5565],[79.2731,17.5671],[79.2682,17.5736],[79.2616,17.5756],[79.258,17.5723],[79.2535,17.5648],[79.2504,17.5565],[79.2448,17.5551],[79.229,17.5598],[79.2197,17.5588],[79.2162,17.5727],[79.2113,17.5802],[79.2048,17.5864],[79.2033,17.5973],[79.2095,17.6026],[79.2004,17.6197],[79.1866,17.6106],[79.1785,17.5974],[79.1721,17.5951],[79.169,17.5883],[79.1665,17.5784],[79.1571,17.5746],[79.1549,17.5737],[79.1463,17.5799],[79.1414,17.588],[79.1412,17.603],[79.1454,17.6153],[79.1424,17.6195],[79.1318,17.6244],[79.1199,17.647],[79.1175,17.6629],[79.1083,17.6653],[79.0992,17.669],[79.09,17.674],[79.0784,17.6846],[79.0739,17.697],[79.0682,17.7076],[79.054,17.7131],[79.0455,17.718],[79.0332,17.7134],[79.0182,17.7046],[79.0087,17.7152],[79.0048,17.7281],[78.9937,17.7549],[78.987,17.7771],[78.9823,17.7842],[78.9703,17.7828],[78.9415,17.7851],[78.9287,17.7874],[78.9259,17.7937],[78.9063,17.7975],[78.9024,17.7995],[78.8933,17.7984],[78.8819,17.8],[78.8634,17.805],[78.8619,17.8138],[78.863,17.8206],[78.8699,17.8246],[78.8666,17.8481],[78.8661,17.8625],[78.8353,17.8668],[78.8242,17.87],[78.8223,17.8751],[78.8266,17.8896],[78.8371,17.8904],[78.8395,17.8984],[78.8457,17.901],[78.8494,17.9165],[78.8579,17.9299],[78.8671,17.9418],[78.8748,17.9594],[78.887,17.9582],[78.9017,17.9556],[78.9119,17.9716],[78.9139,17.9785],[78.9236,17.9895],[78.9358,17.9886],[78.9442,17.9905],[78.9455,17.9948],[78.9478,17.9988],[78.9501,18.0029],[78.948,18.0071],[78.948,18.0141],[78.954,18.0214],[78.9602,18.0269],[78.9614,18.0306],[78.9659,18.0279],[78.9762,18.019],[78.9812,18.0154],[78.9782,18.0109],[78.9854,18.0062],[78.9937,17.9957],[78.996,17.997],[79.0283,18.021],[79.0379,18.0269],[79.0443,18.0294],[79.0536,18.0247],[79.0613,18.018],[79.0701,18.0161],[79.0795,18.0206],[79.0893,18.0214],[79.0898,18.0209],[79.0961,18.0148],[79.1219,18.005],[79.1365,18.0019],[79.1424,17.9997],[79.1421,17.9959],[79.1429,17.9871],[79.1444,17.9817],[79.1529,17.9822],[79.1677,17.9848],[79.1867,17.9903],[79.1982,17.9888],[79.2117,17.9844],[79.218,17.9783],[79.2274,17.9759],[79.238,17.9759],[79.2481,17.975],[79.2514,17.9764],[79.2505,17.996],[79.2768,18.0084],[79.2849,18.0129],[79.2938,18.0156],[79.3042,18.0173],[79.3407,18.0208],[79.3514,18.0209],[79.36,18.0176],[79.3683,18.0154],[79.3718,18.0168],[79.3762,18.0219],[79.3824,18.0268],[79.414,18.0449],[79.4309,18.0585],[79.436,18.062],[79.4471,18.068],[79.4545,18.0737],[79.4579,18.0788],[79.4596,18.0849],[79.4663,18.0968],[79.4718,18.1101],[79.4797,18.107],[79.4892,18.0999],[79.497,18.0977],[79.5063,18.0968],[79.5164,18.1035],[79.5244,18.099],[79.5312,18.0995],[79.5381,18.101],[79.5566,18.101],[79.5627,18.113],[79.5651,18.1165],[79.57,18.1214],[79.5805,18.1193],[79.587,18.1195],[79.5826,18.1252],[79.581,18.1297],[79.5799,18.1403],[79.583,18.1419],[79.5892,18.1424],[79.5965,18.1406],[79.6028,18.1402],[79.6088,18.1502],[79.6068,18.1568],[79.6072,18.1646],[79.6107,18.1718],[79.6166,18.1779],[79.6158,18.1817],[79.6133,18.1888],[79.609,18.1928],[79.6061,18.1998],[79.6041,18.2077],[79.5968,18.2186],[79.5951,18.2257],[79.5886,18.2403],[79.586,18.2453],[79.5758,18.2586],[79.5691,18.2755],[79.5668,18.284],[79.5657,18.296],[79.567,18.3072],[79.5759,18.3103],[79.5778,18.3185],[79.5731,18.3268],[79.5778,18.3323],[79.5792,18.3359],[79.5799,18.3473],[79.579,18.3527],[79.5738,18.3714],[79.5737,18.3813],[79.5756,18.3903],[79.5764,18.3986],[79.579,18.405],[79.573,18.4214],[79.5795,18.4292],[79.589,18.4432],[79.5907,18.4506],[79.5899,18.4587],[79.5903,18.4664],[79.6033,18.4675],[79.6208,18.4721],[79.6312,18.4733],[79.6509,18.4686],[79.6527,18.469],[79.6587,18.4731],[79.6679,18.4818],[79.6748,18.4896],[79.6786,18.4926],[79.6858,18.4937],[79.6961,18.4938],[79.7134,18.4911],[79.7361,18.4829],[79.7453,18.4771],[79.7513,18.4723],[79.7556,18.4678],[79.7601,18.4611],[79.7683,18.4466],[79.7775,18.4339],[79.785,18.4266],[79.7958,18.4198],[79.8066,18.4142],[79.8156,18.413],[79.8216,18.4158],[79.8203,18.4313],[79.815,18.447],[79.8091,18.4612],[79.806,18.472],[79.8055,18.4848],[79.8101,18.4916],[79.8178,18.4954],[79.826,18.4963],[79.8337,18.4939],[79.8499,18.4807],[79.8524,18.4765],[79.8599,18.4591],[79.8739,18.4402],[79.8903,18.429],[79.9156,18.4198],[79.9169,18.4243],[79.9175,18.431],[79.9184,18.4548],[79.9081,18.4597],[79.9002,18.4656],[79.8932,18.4746],[79.8811,18.4944],[79.8787,18.5063],[79.8872,18.5089],[79.907,18.5098],[79.9325,18.5079],[79.9376,18.5043],[79.9434,18.5033],[79.9476,18.5045],[79.9518,18.5027],[79.9551,18.4937],[79.958,18.4809],[79.963,18.4728],[79.9685,18.4719],[79.971,18.4788],[79.9799,18.4844],[79.9857,18.4859],[79.9897,18.482],[79.9927,18.4806],[80.0016,18.4701],[80.0085,18.4687],[80.0178,18.4642],[80.0244,18.4758],[80.0237,18.4807],[80.024,18.4848],[80.0278,18.4899],[80.0288,18.4964],[80.0319,18.504],[80.0335,18.5117],[80.0788,18.5136],[80.078,18.507],[80.0663,18.4981],[80.0591,18.494],[80.0455,18.4774],[80.0595,18.4746],[80.0698,18.471],[80.0778,18.4723],[80.0813,18.4654],[80.083,18.4634],[80.101,18.4631],[80.1117,18.462],[80.1093,18.4524],[80.0977,18.4529],[80.091,18.443],[80.0779,18.4286],[80.0718,18.4232],[80.0544,18.4212],[80.0429,18.4234],[80.0325,18.4265],[80.0281,18.431],[80.0233,18.438],[80.0174,18.4125],[80.0206,18.4024],[80.0237,18.3961],[80.0371,18.399],[80.0525,18.3961],[80.0694,18.3823],[80.0754,18.3876],[80.0723,18.3929],[80.0736,18.4069],[80.0765,18.4177],[80.0912,18.4269],[80.098,18.4257],[80.1057,18.4222],[80.1215,18.4177],[80.1294,18.4147],[80.1361,18.4133],[80.1456,18.4086],[80.1454,18.3932],[80.1415,18.3784],[80.1399,18.3684],[80.147,18.3578],[80.1677,18.3364],[80.1672,18.3438],[80.1715,18.3484],[80.1914,18.3664],[80.1969,18.373],[80.2114,18.3853],[80.2125,18.4011],[80.2149,18.4092],[80.2178,18.4151],[80.2194,18.4231],[80.219,18.4321],[80.2209,18.4579],[80.2199,18.4772],[80.2218,18.5197],[80.222,18.5479],[80.2288,18.5548],[80.2344,18.5591],[80.2382,18.5632],[80.262,18.5836],[80.2641,18.5842],[80.2908,18.5849],[80.2994,18.584],[80.3143,18.5868],[80.3273,18.5903],[80.3367,18.5905],[80.3388,18.5882],[80.3418,18.5864],[80.3485,18.5885],[80.3529,18.5909],[80.3559,18.5937],[80.3575,18.5983],[80.3597,18.6022],[80.3625,18.6037],[80.367,18.6047],[80.3705,18.6031],[80.3816,18.5936]]]}}]}